{"allcity": [
        {
            "city_id": "1781",
            "centerx": "102.224653",
            "district_online": "1",
            "centery": "31.899413",
            "name": "阿坝州",
            "province": "四川",
            "zone_online": "1",
            "pinyin": "abazhou"
        },
        {
            "city_id": "2023",
            "centerx": "80.260605",
            "district_online": "1",
            "centery": "41.168779",
            "name": "阿克苏",
            "province": "新疆",
            "zone_online": "1",
            "pinyin": "akesu"
        },
        {
            "city_id": "152900",
            "centerx": 105.73546,
            "district_online": "1",
            "centery": 38.857855,
            "name": "阿拉善盟",
            "province": "内蒙古",
            "zone_online": "1",
            "pinyin": "alashanmeng"
        },
        {
            "city_id": "513511",
            "centerx": "0.00000",
            "district_online": "1",
            "centery": "0.00000",
            "name": "阿勒泰",
            "province": "新疆",
            "zone_online": "1",
            "pinyin": "aletai"
        },
        {
            "city_id": "232800",
            "centerx": 125.350406,
            "district_online": "1",
            "centery": 46.423355,
            "name": "安达",
            "province": "黑龙江",
            "zone_online": "1",
            "pinyin": "anda"
        },
        {
            "city_id": "1529",
            "centerx": "109.029303",
            "district_online": "1",
            "centery": "32.684781",
            "name": "安康",
            "province": "陕西",
            "zone_online": "0",
            "pinyin": "ankang"
        },
        {
            "city_id": "68",
            "centerx": "117.056857",
            "district_online": "1",
            "centery": "30.524895",
            "name": "安庆",
            "province": "安徽",
            "zone_online": "1",
            "pinyin": "anqing"
        },
        {
            "city_id": "1269",
            "centerx": "122.994646",
            "district_online": "1",
            "centery": "41.108546",
            "name": "鞍山",
            "province": "辽宁",
            "zone_online": "0",
            "pinyin": "anshan"
        },
        {
            "city_id": "534",
            "centerx": "105.947594",
            "district_online": "1",
            "centery": "26.253072",
            "name": "安顺",
            "province": "贵州",
            "zone_online": "0",
            "pinyin": "anshun"
        },
        {
            "city_id": "820",
            "centerx": "114.392756",
            "district_online": "1",
            "centery": "36.097593",
            "name": "安阳",
            "province": "河南",
            "zone_online": "1",
            "pinyin": "anyang"
        },
        {
            "city_id": "1182",
            "centerx": "122.839024",
            "district_online": "1",
            "centery": "45.619641",
            "name": "白城",
            "province": "吉林",
            "zone_online": "0",
            "pinyin": "baicheng"
        },
        {
            "city_id": "131400",
            "centerx": 116.030601,
            "district_online": "0",
            "centery": 39.126815,
            "name": "白沟",
            "province": "河北",
            "zone_online": "0",
            "pinyin": "baigou"
        },
        {
            "city_id": "623011",
            "centerx": "0.00000",
            "district_online": "1",
            "centery": "0.00000",
            "name": "百色",
            "province": "广西",
            "zone_online": "1",
            "pinyin": "baise"
        },
        {
            "city_id": "1223",
            "centerx": "126.423587",
            "district_online": "1",
            "centery": "41.939994",
            "name": "白山",
            "province": "吉林",
            "zone_online": "0",
            "pinyin": "baishan"
        },
        {
            "city_id": "241",
            "centerx": "104.137619",
            "district_online": "1",
            "centery": "36.544827",
            "name": "白银",
            "province": "甘肃",
            "zone_online": "0",
            "pinyin": "baiyin"
        },
        {
            "city_id": "440306",
            "centerx": 113.890128,
            "district_online": "0",
            "centery": 22.560861,
            "name": "宝安",
            "province": "广东",
            "zone_online": "0",
            "pinyin": "baoan"
        },
        {
            "city_id": "649",
            "centerx": "115.46463",
            "district_online": "1",
            "centery": "38.873972",
            "name": "保定",
            "province": "河北",
            "zone_online": "1",
            "pinyin": "baoding"
        },
        {
            "city_id": "1492",
            "centerx": "107.1339",
            "district_online": "1",
            "centery": "34.372436",
            "name": "宝鸡",
            "province": "陕西",
            "zone_online": "0",
            "pinyin": "baoji"
        },
        {
            "city_id": "2167",
            "centerx": "99.161471",
            "district_online": "1",
            "centery": "25.112065",
            "name": "保山",
            "province": "云南",
            "zone_online": "1",
            "pinyin": "baoshan"
        },
        {
            "city_id": "576",
            "centerx": "109.70259",
            "district_online": "1",
            "centery": "18.63913",
            "name": "保亭",
            "province": "海南",
            "zone_online": "0",
            "pinyin": "baoting"
        },
        {
            "city_id": "1372",
            "centerx": "109.840386",
            "district_online": "1",
            "centery": "40.657447",
            "name": "包头",
            "province": "内蒙古",
            "zone_online": "1",
            "pinyin": "baotou"
        },
        {
            "city_id": "150800",
            "centerx": 107.394055,
            "district_online": "1",
            "centery": 40.749398,
            "name": "巴彦淖尔",
            "province": "内蒙古",
            "zone_online": "1",
            "pinyin": "bayannaoer"
        },
        {
            "city_id": "1802",
            "centerx": "106.744729",
            "district_online": "1",
            "centery": "31.865236",
            "name": "巴中",
            "province": "四川",
            "zone_online": "0",
            "pinyin": "bazhong"
        },
        {
            "city_id": "475",
            "centerx": "109.119899",
            "district_online": "1",
            "centery": "21.481217",
            "name": "北海",
            "province": "广西",
            "zone_online": "1",
            "pinyin": "beihai"
        },
        {
            "city_id": "2419",
            "centerx": "116.407413",
            "district_online": "1",
            "centery": "39.904214",
            "name": "北京",
            "province": "北京",
            "zone_online": "1",
            "pinyin": "beijing"
        },
        {
            "city_id": "464",
            "centerx": "110.354215",
            "district_online": "1",
            "centery": "22.708311",
            "name": "北流",
            "province": "广西",
            "zone_online": "0",
            "pinyin": "beiliu"
        },
        {
            "city_id": "22",
            "centerx": "117.389719",
            "district_online": "1",
            "centery": "32.916287",
            "name": "蚌埠",
            "province": "安徽",
            "zone_online": "1",
            "pinyin": "bengbu"
        },
        {
            "city_id": "1258",
            "centerx": "123.766485",
            "district_online": "1",
            "centery": "41.294176",
            "name": "本溪",
            "province": "辽宁",
            "zone_online": "1",
            "pinyin": "benxi"
        },
        {
            "city_id": "494",
            "centerx": "105.283992",
            "district_online": "1",
            "centery": "27.302589",
            "name": "毕节",
            "province": "贵州",
            "zone_online": "0",
            "pinyin": "bijie"
        },
        {
            "city_id": "1556",
            "centerx": "117.970703",
            "district_online": "1",
            "centery": "37.381988",
            "name": "滨州",
            "province": "山东",
            "zone_online": "1",
            "pinyin": "binzhou"
        },
        {
            "city_id": "308",
            "centerx": "114.289707",
            "district_online": "0",
            "centery": "23.173161",
            "name": "博罗",
            "province": "广东",
            "zone_online": "0",
            "pinyin": "boluo"
        },
        {
            "city_id": "6",
            "centerx": "115.778676",
            "district_online": "1",
            "centery": "33.844582",
            "name": "亳州",
            "province": "安徽",
            "zone_online": "0",
            "pinyin": "bozhou"
        },
        {
            "city_id": "668",
            "centerx": "116.83884",
            "district_online": "1",
            "centery": "38.304449",
            "name": "沧州",
            "province": "河北",
            "zone_online": "1",
            "pinyin": "cangzhou"
        },
        {
            "city_id": "441902",
            "centerx": 113.809035,
            "district_online": "0",
            "centery": 22.821039,
            "name": "长安",
            "province": "广东",
            "zone_online": "0",
            "pinyin": "changan"
        },
        {
            "city_id": "1202",
            "centerx": "125.32353",
            "district_online": "1",
            "centery": "43.817084",
            "name": "长春",
            "province": "吉林",
            "zone_online": "1",
            "pinyin": "changchun"
        },
        {
            "city_id": "2332",
            "centerx": "111.698497",
            "district_online": "1",
            "centery": "29.031673",
            "name": "常德",
            "province": "湖南",
            "zone_online": "1",
            "pinyin": "changde"
        },
        {
            "city_id": "1971",
            "centerx": "87.308225",
            "district_online": "1",
            "centery": "44.011183",
            "name": "昌吉",
            "province": "新疆",
            "zone_online": "1",
            "pinyin": "changji"
        },
        {
            "city_id": "513505",
            "centerx": "0.00000",
            "district_online": "1",
            "centery": "0.00000",
            "name": "昌江",
            "province": "海南",
            "zone_online": "0",
            "pinyin": "changjiang"
        },
        {
            "city_id": "175",
            "centerx": "119.523382",
            "district_online": "0",
            "centery": "25.96312",
            "name": "长乐",
            "province": "福建",
            "zone_online": "0",
            "pinyin": "changle"
        },
        {
            "city_id": "441905",
            "centerx": 114.089779,
            "district_online": "0",
            "centery": 22.920828,
            "name": "樟木头",
            "province": "广东",
            "zone_online": "0",
            "pinyin": "changmutou"
        },
        {
            "city_id": "441904",
            "centerx": 113.999501,
            "district_online": "0",
            "centery": 22.981046,
            "name": "常平",
            "province": "广东",
            "zone_online": "0",
            "pinyin": "changping"
        },
        {
            "city_id": "2351",
            "centerx": "112.938814",
            "district_online": "1",
            "centery": "28.228209",
            "name": "长沙",
            "province": "湖南",
            "zone_online": "1",
            "pinyin": "changsha"
        },
        {
            "city_id": "2343",
            "centerx": "112.938814",
            "district_online": "0",
            "centery": "28.228209",
            "name": "长沙县",
            "province": "湖南",
            "zone_online": "0",
            "pinyin": "changshaxian"
        },
        {
            "city_id": "1077",
            "centerx": "120.75241",
            "district_online": "1",
            "centery": "31.653847",
            "name": "常熟",
            "province": "江苏",
            "zone_online": "1",
            "pinyin": "changshu"
        },
        {
            "city_id": "1747",
            "centerx": "113.116255",
            "district_online": "1",
            "centery": "36.195386",
            "name": "长治",
            "province": "山西",
            "zone_online": "1",
            "pinyin": "changzhi"
        },
        {
            "city_id": "1073",
            "centerx": "119.974454",
            "district_online": "1",
            "centery": "31.810077",
            "name": "常州",
            "province": "江苏",
            "zone_online": "1",
            "pinyin": "changzhou"
        },
        {
            "city_id": "39",
            "centerx": "117.864722",
            "district_online": "1",
            "centery": "31.597853",
            "name": "巢湖",
            "province": "安徽",
            "zone_online": "1",
            "pinyin": "chaohu"
        },
        {
            "city_id": "1251",
            "centerx": "120.450372",
            "district_online": "1",
            "centery": "41.573734",
            "name": "朝阳",
            "province": "辽宁",
            "zone_online": "0",
            "pinyin": "chaoyang"
        },
        {
            "city_id": "351",
            "centerx": "116.622597",
            "district_online": "1",
            "centery": "23.656972",
            "name": "潮州",
            "province": "广东",
            "zone_online": "1",
            "pinyin": "chaozhou"
        },
        {
            "city_id": "596",
            "centerx": "117.943621",
            "district_online": "1",
            "centery": "40.978744",
            "name": "承德",
            "province": "河北",
            "zone_online": "0",
            "pinyin": "chengde"
        },
        {
            "city_id": "1840",
            "centerx": "104.064856",
            "district_online": "1",
            "centery": "30.658601",
            "name": "成都",
            "province": "四川",
            "zone_online": "1",
            "pinyin": "chengdu"
        },
        {
            "city_id": "461100",
            "centerx": "0.00000",
            "district_online": "0",
            "centery": "0.00000",
            "name": "澄迈",
            "province": "海南",
            "zone_online": "0",
            "pinyin": "chengmai"
        },
        {
            "city_id": "2408",
            "centerx": "113.014718",
            "district_online": "1",
            "centery": "25.77051",
            "name": "郴州",
            "province": "湖南",
            "zone_online": "0",
            "pinyin": "chenzhou"
        },
        {
            "city_id": "1341",
            "centerx": "118.886856",
            "district_online": "1",
            "centery": "42.257817",
            "name": "赤峰",
            "province": "内蒙古",
            "zone_online": "1",
            "pinyin": "chifeng"
        },
        {
            "city_id": "483",
            "centerx": "105.697501",
            "district_online": "0",
            "centery": "28.591869",
            "name": "赤水",
            "province": "贵州",
            "zone_online": "0",
            "pinyin": "chishui"
        },
        {
            "city_id": "65",
            "centerx": "117.495707",
            "district_online": "1",
            "centery": "30.674219",
            "name": "池州",
            "province": "安徽",
            "zone_online": "1",
            "pinyin": "chizhou"
        },
        {
            "city_id": "2418",
            "centerx": "106.551557",
            "district_online": "1",
            "centery": "29.56301",
            "name": "重庆",
            "province": "重庆",
            "zone_online": "1",
            "pinyin": "chongqing"
        },
        {
            "city_id": "623004",
            "centerx": "0.00000",
            "district_online": "1",
            "centery": "0.00000",
            "name": "崇左",
            "province": "广西",
            "zone_online": "1",
            "pinyin": "chongzuo"
        },
        {
            "city_id": "2270",
            "centerx": "119.041864",
            "district_online": "0",
            "centery": "29.608773",
            "name": "淳安",
            "province": "浙江",
            "zone_online": "0",
            "pinyin": "chunan"
        },
        {
            "city_id": "2178",
            "centerx": "101.546158",
            "district_online": "1",
            "centery": "25.032901",
            "name": "楚雄",
            "province": "云南",
            "zone_online": "1",
            "pinyin": "chuxiong"
        },
        {
            "city_id": "32",
            "centerx": "118.317107",
            "district_online": "1",
            "centery": "32.301556",
            "name": "滁州",
            "province": "安徽",
            "zone_online": "1",
            "pinyin": "chuzhou"
        },
        {
            "city_id": "2260",
            "centerx": "121.266451",
            "district_online": "1",
            "centery": "30.169655",
            "name": "慈溪",
            "province": "浙江",
            "zone_online": "0",
            "pinyin": "cixi"
        },
        {
            "city_id": "1183",
            "centerx": "124.292626",
            "district_online": "0",
            "centery": "45.506996",
            "name": "大安",
            "province": "吉林",
            "zone_online": "0",
            "pinyin": "daan"
        },
        {
            "city_id": "1045",
            "centerx": "120.461357",
            "district_online": "0",
            "centery": "33.194946",
            "name": "大丰",
            "province": "江苏",
            "zone_online": "0",
            "pinyin": "dafeng"
        },
        {
            "city_id": "441906",
            "centerx": 113.950574,
            "district_online": "0",
            "centery": 22.945649,
            "name": "大朗 ",
            "province": "广东",
            "zone_online": "0",
            "pinyin": "dalang"
        },
        {
            "city_id": "2160",
            "centerx": "100.230098",
            "district_online": "1",
            "centery": "25.591909",
            "name": "大理",
            "province": "云南",
            "zone_online": "1",
            "pinyin": "dali"
        },
        {
            "city_id": "1288",
            "centerx": "121.614677",
            "district_online": "1",
            "centery": "38.914024",
            "name": "大连",
            "province": "辽宁",
            "zone_online": "1",
            "pinyin": "dalian"
        },
        {
            "city_id": "441907",
            "centerx": 113.84869,
            "district_online": "0",
            "centery": 22.905898,
            "name": "大岭山",
            "province": "广东",
            "zone_online": "0",
            "pinyin": "dalingshan"
        },
        {
            "city_id": "1282",
            "centerx": "124.384913",
            "district_online": "1",
            "centery": "40.127344",
            "name": "丹东",
            "province": "辽宁",
            "zone_online": "1",
            "pinyin": "dandong"
        },
        {
            "city_id": "1072",
            "centerx": "119.57534",
            "district_online": "0",
            "centery": "31.991159",
            "name": "丹阳",
            "province": "江苏",
            "zone_online": "0",
            "pinyin": "danyang"
        },
        {
            "city_id": "513506",
            "centerx": "0.00000",
            "district_online": "1",
            "centery": "0.00000",
            "name": "儋州",
            "province": "海南",
            "zone_online": "0",
            "pinyin": "danzhou"
        },
        {
            "city_id": "782",
            "centerx": "125.104637",
            "district_online": "1",
            "centery": "46.59019",
            "name": "大庆",
            "province": "黑龙江",
            "zone_online": "1",
            "pinyin": "daqing"
        },
        {
            "city_id": "1275",
            "centerx": "122.509131",
            "district_online": "0",
            "centery": "40.644622",
            "name": "大石桥",
            "province": "辽宁",
            "zone_online": "0",
            "pinyin": "dashiqiao"
        },
        {
            "city_id": "1673",
            "centerx": "113.300126",
            "district_online": "1",
            "centery": "40.076816",
            "name": "大同",
            "province": "山西",
            "zone_online": "1",
            "pinyin": "datong"
        },
        {
            "city_id": "232700",
            "centerx": 124.601195,
            "district_online": "1",
            "centery": 51.953507,
            "name": "大兴安岭",
            "province": "黑龙江",
            "zone_online": "0",
            "pinyin": "daxinganling"
        },
        {
            "city_id": "1830",
            "centerx": "107.468023",
            "district_online": "1",
            "centery": "31.209572",
            "name": "达州",
            "province": "四川",
            "zone_online": "1",
            "pinyin": "dazhou"
        },
        {
            "city_id": "1191",
            "centerx": "125.705502",
            "district_online": "0",
            "centery": "44.537347",
            "name": "德惠",
            "province": "吉林",
            "zone_online": "0",
            "pinyin": "dehui"
        },
        {
            "city_id": "875",
            "centerx": "113.050407",
            "district_online": "0",
            "centery": "34.453578",
            "name": "登封",
            "province": "河南",
            "zone_online": "0",
            "pinyin": "dengfeng"
        },
        {
            "city_id": "1253",
            "centerx": "123.339312",
            "district_online": "0",
            "centery": "41.426372",
            "name": "灯塔",
            "province": "辽宁",
            "zone_online": "0",
            "pinyin": "dengta"
        },
        {
            "city_id": "926",
            "centerx": "112.087425",
            "district_online": "0",
            "centery": "32.687719",
            "name": "邓州",
            "province": "河南",
            "zone_online": "0",
            "pinyin": "dengzhou"
        },
        {
            "city_id": "1829",
            "centerx": "104.397808",
            "district_online": "1",
            "centery": "31.127537",
            "name": "德阳",
            "province": "四川",
            "zone_online": "1",
            "pinyin": "deyang"
        },
        {
            "city_id": "1559",
            "centerx": "116.302595",
            "district_online": "1",
            "centery": "37.450919",
            "name": "德州",
            "province": "山东",
            "zone_online": "1",
            "pinyin": "dezhou"
        },
        {
            "city_id": "460900",
            "centerx": "0.00000",
            "district_online": "0",
            "centery": "0.00000",
            "name": "定安",
            "province": "海南",
            "zone_online": "0",
            "pinyin": "dingan"
        },
        {
            "city_id": "249",
            "centerx": "104.626278",
            "district_online": "1",
            "centery": "35.580623",
            "name": "定西",
            "province": "甘肃",
            "zone_online": "0",
            "pinyin": "dingxi"
        },
        {
            "city_id": "661",
            "centerx": "114.990186",
            "district_online": "1",
            "centery": "38.516316",
            "name": "定州",
            "province": "河北",
            "zone_online": "1",
            "pinyin": "dingzhou"
        },
        {
            "city_id": "533400",
            "centerx": 99.709008,
            "district_online": "1",
            "centery": 27.825348,
            "name": "迪庆",
            "province": "云南",
            "zone_online": "1",
            "pinyin": "diqing"
        },
        {
            "city_id": "460800",
            "centerx": "0.00000",
            "district_online": "0",
            "centery": "0.00000",
            "name": "东方",
            "province": "海南",
            "zone_online": "0",
            "pinyin": "dongfang"
        },
        {
            "city_id": "1283",
            "centerx": "124.152705",
            "district_online": "0",
            "centery": "39.863008",
            "name": "东港",
            "province": "辽宁",
            "zone_online": "0",
            "pinyin": "donggang"
        },
        {
            "city_id": "322",
            "centerx": "113.751765",
            "district_online": "1",
            "centery": "23.020536",
            "name": "东莞",
            "province": "广东",
            "zone_online": "1",
            "pinyin": "dongguan"
        },
        {
            "city_id": "1053",
            "centerx": "120.323372",
            "district_online": "0",
            "centery": "32.851129",
            "name": "东台",
            "province": "江苏",
            "zone_online": "0",
            "pinyin": "dongtai"
        },
        {
            "city_id": "361200",
            "centerx": 116.609849,
            "district_online": "0",
            "centery": 28.254013,
            "name": "东乡",
            "province": "江西",
            "zone_online": "0",
            "pinyin": "dongxiang"
        },
        {
            "city_id": "2281",
            "centerx": "120.241584",
            "district_online": "0",
            "centery": "29.289658",
            "name": "东阳",
            "province": "浙江",
            "zone_online": "0",
            "pinyin": "dongyang"
        },
        {
            "city_id": "1562",
            "centerx": "118.674767",
            "district_online": "1",
            "centery": "37.434751",
            "name": "东营",
            "province": "山东",
            "zone_online": "1",
            "pinyin": "dongying"
        },
        {
            "city_id": "1828",
            "centerx": "103.619385",
            "district_online": "1",
            "centery": "30.998259",
            "name": "都江堰",
            "province": "四川",
            "zone_online": "1",
            "pinyin": "dujiangyan"
        },
        {
            "city_id": "210",
            "centerx": "94.661881",
            "district_online": "1",
            "centery": "40.14213",
            "name": "敦煌",
            "province": "甘肃",
            "zone_online": "0",
            "pinyin": "dunhuang"
        },
        {
            "city_id": "536",
            "centerx": "107.518727",
            "district_online": "0",
            "centery": "26.259407",
            "name": "都匀",
            "province": "贵州",
            "zone_online": "0",
            "pinyin": "duyun"
        },
        {
            "city_id": "1380",
            "centerx": "109.781202",
            "district_online": "1",
            "centery": "39.608182",
            "name": "鄂尔多斯",
            "province": "内蒙古",
            "zone_online": "1",
            "pinyin": "eerduosi"
        },
        {
            "city_id": "1884",
            "centerx": "103.484614",
            "district_online": "1",
            "centery": "29.601212",
            "name": "峨眉山",
            "province": "四川",
            "zone_online": "0",
            "pinyin": "emeishan"
        },
        {
            "city_id": "379",
            "centerx": "112.305126",
            "district_online": "0",
            "centery": "22.183229",
            "name": "恩平",
            "province": "广东",
            "zone_online": "0",
            "pinyin": "enping"
        },
        {
            "city_id": "990",
            "centerx": "109.488162",
            "district_online": "1",
            "centery": "30.272204",
            "name": "恩施",
            "province": "湖北",
            "zone_online": "0",
            "pinyin": "enshi"
        },
        {
            "city_id": "1328",
            "centerx": "111.977943",
            "district_online": "0",
            "centery": "43.65317",
            "name": "二连浩特",
            "province": "内蒙古",
            "zone_online": "0",
            "pinyin": "erlianhaote"
        },
        {
            "city_id": "996",
            "centerx": "114.894843",
            "district_online": "1",
            "centery": "30.39194",
            "name": "鄂州",
            "province": "湖北",
            "zone_online": "0",
            "pinyin": "ezhou"
        },
        {
            "city_id": "472",
            "centerx": "108.347253",
            "district_online": "1",
            "centery": "21.615298",
            "name": "防城港",
            "province": "广西",
            "zone_online": "1",
            "pinyin": "fangchenggang"
        },
        {
            "city_id": "340122",
            "centerx": 117.47568,
            "district_online": "0",
            "centery": 31.893992,
            "name": "肥东县",
            "province": "安徽",
            "zone_online": "0",
            "pinyin": "feidong"
        },
        {
            "city_id": "340123",
            "centerx": 117.164699,
            "district_online": "0",
            "centery": 31.71305,
            "name": "肥西县",
            "province": "安徽",
            "zone_online": "0",
            "pinyin": "feixi"
        },
        {
            "city_id": "1129",
            "centerx": "115.771195",
            "district_online": "1",
            "centery": "28.159325",
            "name": "丰城",
            "province": "江西",
            "zone_online": "0",
            "pinyin": "fengcheng"
        },
        {
            "city_id": "1274",
            "centerx": "124.066895",
            "district_online": "0",
            "centery": "40.452322",
            "name": "凤城",
            "province": "辽宁",
            "zone_online": "0",
            "pinyin": "fengchengln"
        },
        {
            "city_id": "441908",
            "centerx": 114.143331,
            "district_online": "0",
            "centery": 22.752701,
            "name": "凤岗",
            "province": "广东",
            "zone_online": "0",
            "pinyin": "fenggang"
        },
        {
            "city_id": "2273",
            "centerx": "0.00000",
            "district_online": "1",
            "centery": "0.00000",
            "name": "奉化",
            "province": "浙江",
            "zone_online": "1",
            "pinyin": "fenghua"
        },
        {
            "city_id": "433200",
            "centerx": "0.00000",
            "district_online": "0",
            "centery": "0.00000",
            "name": "凤凰县",
            "province": "湖南",
            "zone_online": "0",
            "pinyin": "fenghuang"
        },
        {
            "city_id": "354",
            "centerx": "113.121416",
            "district_online": "1",
            "centery": "23.021548",
            "name": "佛山",
            "province": "广东",
            "zone_online": "1",
            "pinyin": "foshan"
        },
        {
            "city_id": "514",
            "centerx": "107.51705",
            "district_online": "0",
            "centery": "26.679987",
            "name": "福泉",
            "province": "贵州",
            "zone_online": "0",
            "pinyin": "fuquan"
        },
        {
            "city_id": "1245",
            "centerx": "123.957208",
            "district_online": "1",
            "centery": "41.880872",
            "name": "抚顺",
            "province": "辽宁",
            "zone_online": "1",
            "pinyin": "fushun"
        },
        {
            "city_id": "1290",
            "centerx": "121.670325",
            "district_online": "1",
            "centery": "42.021619",
            "name": "阜新",
            "province": "辽宁",
            "zone_online": "0",
            "pinyin": "fuxin"
        },
        {
            "city_id": "19",
            "centerx": "115.814144",
            "district_online": "1",
            "centery": "32.890124",
            "name": "阜阳",
            "province": "安徽",
            "zone_online": "1",
            "pinyin": "fuyangah"
        },
        {
            "city_id": "2266",
            "centerx": "119.96017",
            "district_online": "1",
            "centery": "30.048838",
            "name": "富阳",
            "province": "浙江",
            "zone_online": "1",
            "pinyin": "fuyangzj"
        },
        {
            "city_id": "171",
            "centerx": "119.296494",
            "district_online": "1",
            "centery": "26.074508",
            "name": "福州",
            "province": "福建",
            "zone_online": "1",
            "pinyin": "fuzhou"
        },
        {
            "city_id": "1132",
            "centerx": "116.358176",
            "district_online": "1",
            "centery": "27.9492",
            "name": "抚州",
            "province": "江西",
            "zone_online": "1",
            "pinyin": "fuzhoujx"
        },
        {
            "city_id": "1280",
            "centerx": "122.348812",
            "district_online": "0",
            "centery": "40.400509",
            "name": "盖州",
            "province": "辽宁",
            "zone_online": "0",
            "pinyin": "gaizhou"
        },
        {
            "city_id": "623000",
            "centerx": 102.917155,
            "district_online": "1",
            "centery": 34.989076,
            "name": "甘南",
            "province": "甘肃",
            "zone_online": "0",
            "pinyin": "gannan"
        },
        {
            "city_id": "1170",
            "centerx": "114.933553",
            "district_online": "1",
            "centery": "25.829209",
            "name": "赣州",
            "province": "江西",
            "zone_online": "1",
            "pinyin": "ganzhou"
        },
        {
            "city_id": "1121",
            "centerx": "115.375618",
            "district_online": "1",
            "centery": "28.417261",
            "name": "高安",
            "province": "江西",
            "zone_online": "0",
            "pinyin": "gaoan"
        },
        {
            "city_id": "131200",
            "centerx": 115.879958,
            "district_online": "0",
            "centery": 39.332542,
            "name": "高碑店",
            "province": "河北",
            "zone_online": "0",
            "pinyin": "gaobeidian"
        },
        {
            "city_id": "673",
            "centerx": "114.846821",
            "district_online": "0",
            "centery": "38.02166",
            "name": "藁城",
            "province": "河北",
            "zone_online": "0",
            "pinyin": "gaocheng"
        },
        {
            "city_id": "440608",
            "centerx": "0.00000",
            "district_online": "0",
            "centery": "0.00000",
            "name": "高明",
            "province": "广东",
            "zone_online": "0",
            "pinyin": "gaoming"
        },
        {
            "city_id": "2227",
            "centerx": "103.160034",
            "district_online": "0",
            "centery": "23.359121",
            "name": "个旧",
            "province": "云南",
            "zone_online": "0",
            "pinyin": "gejiu"
        },
        {
            "city_id": "858",
            "centerx": "113.022431",
            "district_online": "1",
            "centery": "34.747853",
            "name": "巩义",
            "province": "河南",
            "zone_online": "1",
            "pinyin": "gongyi"
        },
        {
            "city_id": "1197",
            "centerx": "124.821727",
            "district_online": "0",
            "centery": "43.505288",
            "name": "公主岭",
            "province": "吉林",
            "zone_online": "0",
            "pinyin": "gongzhuling"
        },
        {
            "city_id": "131300",
            "centerx": 116.304677,
            "district_online": "0",
            "centery": 39.444497,
            "name": "固安",
            "province": "河北",
            "zone_online": "0",
            "pinyin": "guan"
        },
        {
            "city_id": "513800",
            "centerx": 104.288918,
            "district_online": "1",
            "centery": 30.983636,
            "name": "广汉",
            "province": "四川",
            "zone_online": "1",
            "pinyin": "guanghan"
        },
        {
            "city_id": "510800",
            "centerx": 105.84987,
            "district_online": "1",
            "centery": 32.441817,
            "name": "广元",
            "province": "四川",
            "zone_online": "0",
            "pinyin": "guangyuan"
        },
        {
            "city_id": "2422",
            "centerx": "113.264435",
            "district_online": "1",
            "centery": "23.129163",
            "name": "广州",
            "province": "广东",
            "zone_online": "1",
            "pinyin": "guangzhou"
        },
        {
            "city_id": "457",
            "centerx": "109.598927",
            "district_online": "1",
            "centery": "23.111531",
            "name": "贵港",
            "province": "广西",
            "zone_online": "1",
            "pinyin": "guigang"
        },
        {
            "city_id": "407",
            "centerx": "110.290195",
            "district_online": "1",
            "centery": "25.273566",
            "name": "桂林",
            "province": "广西",
            "zone_online": "1",
            "pinyin": "guilin"
        },
        {
            "city_id": "519",
            "centerx": "106.630104",
            "district_online": "1",
            "centery": "26.647481",
            "name": "贵阳",
            "province": "贵州",
            "zone_online": "1",
            "pinyin": "guiyang"
        },
        {
            "city_id": "1398",
            "centerx": "106.24261",
            "district_online": "1",
            "centery": "36.015855",
            "name": "固原",
            "province": "宁夏",
            "zone_online": "0",
            "pinyin": "guyuan"
        },
        {
            "city_id": "795",
            "centerx": "126.535065",
            "district_online": "1",
            "centery": "45.803156",
            "name": "哈尔滨",
            "province": "黑龙江",
            "zone_online": "1",
            "pinyin": "haerbin"
        },
        {
            "city_id": "321500",
            "centerx": "0.00000",
            "district_online": "0",
            "centery": "0.00000",
            "name": "海安",
            "province": "江苏",
            "zone_online": "0",
            "pinyin": "haian"
        },
        {
            "city_id": "1270",
            "centerx": "122.685217",
            "district_online": "0",
            "centery": "40.882377",
            "name": "海城",
            "province": "辽宁",
            "zone_online": "0",
            "pinyin": "haicheng"
        },
        {
            "city_id": "562",
            "centerx": "110.328873",
            "district_online": "1",
            "centery": "20.030765",
            "name": "海口",
            "province": "海南",
            "zone_online": "1",
            "pinyin": "haikou"
        },
        {
            "city_id": "1068",
            "centerx": "121.170601",
            "district_online": "1",
            "centery": "31.893726",
            "name": "海门",
            "province": "江苏",
            "zone_online": "1",
            "pinyin": "haimen"
        },
        {
            "city_id": "2258",
            "centerx": "120.680748",
            "district_online": "0",
            "centery": "30.510664",
            "name": "海宁",
            "province": "浙江",
            "zone_online": "0",
            "pinyin": "haining"
        },
        {
            "city_id": "1994",
            "centerx": "93.515052",
            "district_online": "1",
            "centery": "42.819433",
            "name": "哈密",
            "province": "新疆",
            "zone_online": "1",
            "pinyin": "hami"
        },
        {
            "city_id": "1470",
            "centerx": "110.442599",
            "district_online": "0",
            "centery": "35.476246",
            "name": "韩城",
            "province": "陕西",
            "zone_online": "0",
            "pinyin": "hancheng"
        },
        {
            "city_id": "730",
            "centerx": 114.545866,
            "district_online": "1",
            "centery": 36.631195,
            "name": "邯郸",
            "province": "河北",
            "zone_online": "1",
            "pinyin": "handan"
        },
        {
            "city_id": "2259",
            "centerx": "120.155361",
            "district_online": "1",
            "centery": "30.273978",
            "name": "杭州",
            "province": "浙江",
            "zone_online": "1",
            "pinyin": "hangzhou"
        },
        {
            "city_id": "1527",
            "centerx": 107.029839,
            "district_online": "1",
            "centery": 33.073719,
            "name": "汉中",
            "province": "陕西",
            "zone_online": "1",
            "pinyin": "hanzhong"
        },
        {
            "city_id": "824",
            "centerx": "114.297273",
            "district_online": "1",
            "centery": "35.747225",
            "name": "鹤壁",
            "province": "河南",
            "zone_online": "1",
            "pinyin": "hebi"
        },
        {
            "city_id": "414",
            "centerx": "108.085261",
            "district_online": "1",
            "centery": "24.692931",
            "name": "河池",
            "province": "广西",
            "zone_online": "0",
            "pinyin": "hechi"
        },
        {
            "city_id": "40",
            "centerx": "117.227271",
            "district_online": "1",
            "centery": "31.821448",
            "name": "合肥",
            "province": "安徽",
            "zone_online": "1",
            "pinyin": "hefei"
        },
        {
            "city_id": "755",
            "centerx": "130.298101",
            "district_online": "1",
            "centery": "47.349935",
            "name": "鹤岗",
            "province": "黑龙江",
            "zone_online": "0",
            "pinyin": "hegang"
        },
        {
            "city_id": "743",
            "centerx": "127.52846",
            "district_online": "1",
            "centery": "50.245297",
            "name": "黑河",
            "province": "黑龙江",
            "zone_online": "0",
            "pinyin": "heihe"
        },
        {
            "city_id": "660",
            "centerx": "116.099518",
            "district_online": "0",
            "centery": "38.446624",
            "name": "河间",
            "province": "河北",
            "zone_online": "0",
            "pinyin": "hejian"
        },
        {
            "city_id": "696",
            "centerx": "115.69868",
            "district_online": "1",
            "centery": "37.735302",
            "name": "衡水",
            "province": "河北",
            "zone_online": "0",
            "pinyin": "henshui"
        },
        {
            "city_id": "2387",
            "centerx": "112.5719",
            "district_online": "1",
            "centery": "26.89384",
            "name": "衡阳",
            "province": "湖南",
            "zone_online": "1",
            "pinyin": "henyang"
        },
        {
            "city_id": "2047",
            "centerx": "79.913534",
            "district_online": "1",
            "centery": "37.112148",
            "name": "和田",
            "province": "新疆",
            "zone_online": "0",
            "pinyin": "hetian"
        },
        {
            "city_id": "306",
            "centerx": "114.70045",
            "district_online": "1",
            "centery": "23.743538",
            "name": "河源",
            "province": "广东",
            "zone_online": "1",
            "pinyin": "heyuan"
        },
        {
            "city_id": "1634",
            "centerx": "115.480656",
            "district_online": "1",
            "centery": "35.23375",
            "name": "菏泽",
            "province": "山东",
            "zone_online": "1",
            "pinyin": "heze"
        },
        {
            "city_id": "2222",
            "centerx": "101.998126",
            "district_online": "0",
            "centery": "23.596544",
            "name": "贺州",
            "province": "广西",
            "zone_online": "0",
            "pinyin": "hezhou"
        },
        {
            "city_id": "441903",
            "centerx": 113.676806,
            "district_online": "0",
            "centery": 22.941272,
            "name": "厚街",
            "province": "广东",
            "zone_online": "0",
            "pinyin": "houjie"
        },
        {
            "city_id": "1207",
            "centerx": "126.74631",
            "district_online": "0",
            "centery": "42.972097",
            "name": "桦甸",
            "province": "吉林",
            "zone_online": "0",
            "pinyin": "huadian"
        },
        {
            "city_id": "1042",
            "centerx": "119.015288",
            "district_online": "1",
            "centery": "33.61036",
            "name": "淮安",
            "province": "江苏",
            "zone_online": "1",
            "pinyin": "huaian"
        },
        {
            "city_id": "4",
            "centerx": "116.798265",
            "district_online": "1",
            "centery": "33.955845",
            "name": "淮北",
            "province": "安徽",
            "zone_online": "1",
            "pinyin": "huaibei"
        },
        {
            "city_id": "2367",
            "centerx": "109.998488",
            "district_online": "1",
            "centery": "27.554978",
            "name": "怀化",
            "province": "湖南",
            "zone_online": "1",
            "pinyin": "huaihua"
        },
        {
            "city_id": "25",
            "centerx": "116.999933",
            "district_online": "1",
            "centery": "32.625478",
            "name": "淮南",
            "province": "安徽",
            "zone_online": "1",
            "pinyin": "huainan"
        },
        {
            "city_id": "995",
            "centerx": "114.872316",
            "district_online": "1",
            "centery": "30.453906",
            "name": "黄冈",
            "province": "湖北",
            "zone_online": "1",
            "pinyin": "huanggang"
        },
        {
            "city_id": "69",
            "centerx": "118.337476",
            "district_online": "1",
            "centery": "29.714683",
            "name": "黄山",
            "province": "安徽",
            "zone_online": "1",
            "pinyin": "huangshan"
        },
        {
            "city_id": "1006",
            "centerx": "115.03852",
            "district_online": "1",
            "centery": "30.199652",
            "name": "黄石",
            "province": "湖北",
            "zone_online": "1",
            "pinyin": "huangshi"
        },
        {
            "city_id": "1496",
            "centerx": "110.092301",
            "district_online": "0",
            "centery": "34.566081",
            "name": "华阴",
            "province": "陕西",
            "zone_online": "0",
            "pinyin": "huayin"
        },
        {
            "city_id": "1365",
            "centerx": "111.748847",
            "district_online": "1",
            "centery": "40.84231",
            "name": "呼和浩特",
            "province": "内蒙古",
            "zone_online": "1",
            "pinyin": "huhehaote"
        },
        {
            "city_id": "358",
            "centerx": "114.416196",
            "district_online": "1",
            "centery": "23.111847",
            "name": "惠州",
            "province": "广东",
            "zone_online": "1",
            "pinyin": "huizhou"
        },
        {
            "city_id": "1268",
            "centerx": "120.836827",
            "district_online": "1",
            "centery": "40.710953",
            "name": "葫芦岛",
            "province": "辽宁",
            "zone_online": "1",
            "pinyin": "huludao"
        },
        {
            "city_id": "1303",
            "centerx": "119.765739",
            "district_online": "1",
            "centery": "49.211572",
            "name": "呼伦贝尔",
            "province": "内蒙古",
            "zone_online": "1",
            "pinyin": "hulunbeier"
        },
        {
            "city_id": "441901",
            "centerx": 113.679323,
            "district_online": "0",
            "centery": 22.820648,
            "name": "虎门",
            "province": "广东",
            "zone_online": "0",
            "pinyin": "humen"
        },
        {
            "city_id": "2250",
            "centerx": "120.086818",
            "district_online": "1",
            "centery": "30.89436",
            "name": "湖州",
            "province": "浙江",
            "zone_online": "1",
            "pinyin": "huzhou"
        },
        {
            "city_id": "781",
            "centerx": "130.318917",
            "district_online": "1",
            "centery": "46.799923",
            "name": "佳木斯",
            "province": "黑龙江",
            "zone_online": "1",
            "pinyin": "jiamusi"
        },
        {
            "city_id": "2274",
            "centerx": "119.281159",
            "district_online": "0",
            "centery": "29.474817",
            "name": "建德",
            "province": "浙江",
            "zone_online": "0",
            "pinyin": "jiande"
        },
        {
            "city_id": "1054",
            "centerx": "119.569989",
            "district_online": "0",
            "centery": "32.434672",
            "name": "江都",
            "province": "江苏",
            "zone_online": "0",
            "pinyin": "jiangdu"
        },
        {
            "city_id": "374",
            "centerx": "113.081831",
            "district_online": "1",
            "centery": "22.578723",
            "name": "江门",
            "province": "广东",
            "zone_online": "1",
            "pinyin": "jiangmen"
        },
        {
            "city_id": "2295",
            "centerx": "118.626636",
            "district_online": "0",
            "centery": "28.737245",
            "name": "江山",
            "province": "浙江",
            "zone_online": "0",
            "pinyin": "jiangshan"
        },
        {
            "city_id": "1055",
            "centerx": "120.12864",
            "district_online": "0",
            "centery": "32.508061",
            "name": "姜堰",
            "province": "江苏",
            "zone_online": "0",
            "pinyin": "jiangyan"
        },
        {
            "city_id": "1075",
            "centerx": "120.284946",
            "district_online": "1",
            "centery": "31.920673",
            "name": "江阴",
            "province": "江苏",
            "zone_online": "1",
            "pinyin": "jiangyin"
        },
        {
            "city_id": "513500",
            "centerx": 104.751871,
            "district_online": "1",
            "centery": 31.784624,
            "name": "江油",
            "province": "四川",
            "zone_online": "1",
            "pinyin": "jiangyou"
        },
        {
            "city_id": "1044",
            "centerx": "119.798351",
            "district_online": "0",
            "centery": "33.464238",
            "name": "建湖县",
            "province": "江苏",
            "zone_online": "0",
            "pinyin": "jianhuxian"
        },
        {
            "city_id": "1228",
            "centerx": "126.184073",
            "district_online": "0",
            "centery": "41.130403",
            "name": "集安",
            "province": "吉林",
            "zone_online": "0",
            "pinyin": "jianjl"
        },
        {
            "city_id": "1155",
            "centerx": "114.992913",
            "district_online": "1",
            "centery": "27.113039",
            "name": "吉安",
            "province": "江西",
            "zone_online": "1",
            "pinyin": "jianjx"
        },
        {
            "city_id": "1198",
            "centerx": "127.344301",
            "district_online": "0",
            "centery": "43.723842",
            "name": "蛟河",
            "province": "吉林",
            "zone_online": "0",
            "pinyin": "jiaohe"
        },
        {
            "city_id": "1613",
            "centerx": "120.04643",
            "district_online": "0",
            "centery": "35.8725",
            "name": "胶南",
            "province": "山东",
            "zone_online": "0",
            "pinyin": "jiaonan"
        },
        {
            "city_id": "840",
            "centerx": "113.241823",
            "district_online": "1",
            "centery": "35.215893",
            "name": "焦作",
            "province": "河南",
            "zone_online": "1",
            "pinyin": "jiaozuo"
        },
        {
            "city_id": "2249",
            "centerx": "120.758543",
            "district_online": "1",
            "centery": "30.753924",
            "name": "嘉兴",
            "province": "浙江",
            "zone_online": "1",
            "pinyin": "jiaxing"
        },
        {
            "city_id": "215",
            "centerx": "98.289152",
            "district_online": "0",
            "centery": "39.77313",
            "name": "嘉峪关",
            "province": "甘肃",
            "zone_online": "0",
            "pinyin": "jiayuguan"
        },
        {
            "city_id": "12",
            "centerx": "115.374564",
            "district_online": "0",
            "centery": "33.257013",
            "name": "界首",
            "province": "安徽",
            "zone_online": "0",
            "pinyin": "jieshou"
        },
        {
            "city_id": "312",
            "centerx": "116.372831",
            "district_online": "1",
            "centery": "23.549993",
            "name": "揭阳",
            "province": "广东",
            "zone_online": "1",
            "pinyin": "jieyang"
        },
        {
            "city_id": "1200",
            "centerx": "126.549572",
            "district_online": "1",
            "centery": "43.837883",
            "name": "吉林",
            "province": "吉林",
            "zone_online": "1",
            "pinyin": "jilin"
        },
        {
            "city_id": "1598",
            "centerx": "120.447201",
            "district_online": "0",
            "centery": "36.389909",
            "name": "即墨",
            "province": "山东",
            "zone_online": "0",
            "pinyin": "jimo"
        },
        {
            "city_id": "1591",
            "centerx": "116.994917",
            "district_online": "1",
            "centery": "36.665282",
            "name": "济南",
            "province": "山东",
            "zone_online": "1",
            "pinyin": "jinan"
        },
        {
            "city_id": "226",
            "centerx": "102.188043",
            "district_online": "1",
            "centery": "38.520089",
            "name": "金昌",
            "province": "甘肃",
            "zone_online": "0",
            "pinyin": "jinchang"
        },
        {
            "city_id": "1777",
            "centerx": "112.851768",
            "district_online": "1",
            "centery": "35.49087",
            "name": "晋城",
            "province": "山西",
            "zone_online": "1",
            "pinyin": "jincheng"
        },
        {
            "city_id": "1102",
            "centerx": "117.181566",
            "district_online": "1",
            "centery": "29.307094",
            "name": "景德镇",
            "province": "江西",
            "zone_online": "1",
            "pinyin": "jindezhen"
        },
        {
            "city_id": "1160",
            "centerx": "114.289182",
            "district_online": "0",
            "centery": "26.748186",
            "name": "井冈山",
            "province": "江西",
            "zone_online": "0",
            "pinyin": "jinggangshan"
        },
        {
            "city_id": "2243",
            "centerx": "100.799776",
            "district_online": "0",
            "centery": "22.01071",
            "name": "景洪",
            "province": "云南",
            "zone_online": "0",
            "pinyin": "jinghong"
        },
        {
            "city_id": "1070",
            "centerx": "120.27449",
            "district_online": "0",
            "centery": "32.014818",
            "name": "靖江",
            "province": "江苏",
            "zone_online": "0",
            "pinyin": "jingjiang"
        },
        {
            "city_id": "969",
            "centerx": "112.199265",
            "district_online": "1",
            "centery": "31.035423",
            "name": "荆门",
            "province": "湖北",
            "zone_online": "0",
            "pinyin": "jingmen"
        },
        {
            "city_id": "992",
            "centerx": "112.239741",
            "district_online": "1",
            "centery": "30.335165",
            "name": "荆州",
            "province": "湖北",
            "zone_online": "0",
            "pinyin": "jingzhou"
        },
        {
            "city_id": "2286",
            "centerx": "119.647421",
            "district_online": "1",
            "centery": "29.079164",
            "name": "金华",
            "province": "浙江",
            "zone_online": "1",
            "pinyin": "jinhua"
        },
        {
            "city_id": "1630",
            "centerx": "116.587259",
            "district_online": "1",
            "centery": "35.414864",
            "name": "济宁",
            "province": "山东",
            "zone_online": "1",
            "pinyin": "jining"
        },
        {
            "city_id": "197",
            "centerx": "118.580527",
            "district_online": "1",
            "centery": "24.815079",
            "name": "晋江",
            "province": "福建",
            "zone_online": "1",
            "pinyin": "jinjiang"
        },
        {
            "city_id": "1711",
            "centerx": "112.752695",
            "district_online": "1",
            "centery": "37.687024",
            "name": "晋中",
            "province": "山西",
            "zone_online": "1",
            "pinyin": "jinzhong"
        },
        {
            "city_id": "1267",
            "centerx": "121.127063",
            "district_online": "1",
            "centery": "41.095123",
            "name": "锦州",
            "province": "辽宁",
            "zone_online": "1",
            "pinyin": "jinzhou"
        },
        {
            "city_id": "685",
            "centerx": "115.044147",
            "district_online": "0",
            "centery": "38.033682",
            "name": "晋州",
            "province": "河北",
            "zone_online": "0",
            "pinyin": "jinzhouhb"
        },
        {
            "city_id": "513514",
            "centerx": "0.00000",
            "district_online": "0",
            "centery": "0.00000",
            "name": "吉首",
            "province": "湖南",
            "zone_online": "0",
            "pinyin": "jishou"
        },
        {
            "city_id": "1093",
            "centerx": "116.001982",
            "district_online": "1",
            "centery": "29.705096",
            "name": "九江",
            "province": "江西",
            "zone_online": "1",
            "pinyin": "jiujiang"
        },
        {
            "city_id": "214",
            "centerx": "98.494411",
            "district_online": "1",
            "centery": "39.732488",
            "name": "酒泉",
            "province": "甘肃",
            "zone_online": "0",
            "pinyin": "jiuquan"
        },
        {
            "city_id": "1194",
            "centerx": "125.839752",
            "district_online": "0",
            "centery": "44.151836",
            "name": "九台",
            "province": "吉林",
            "zone_online": "0",
            "pinyin": "jiutai"
        },
        {
            "city_id": "810",
            "centerx": "130.969333",
            "district_online": "1",
            "centery": "45.295075",
            "name": "鸡西",
            "province": "黑龙江",
            "zone_online": "0",
            "pinyin": "jixi"
        },
        {
            "city_id": "843",
            "centerx": "112.60247",
            "district_online": "1",
            "centery": "35.067003",
            "name": "济源",
            "province": "河南",
            "zone_online": "1",
            "pinyin": "jiyuan"
        },
        {
            "city_id": "700",
            "centerx": "115.579382",
            "district_online": "0",
            "centery": "37.551029",
            "name": "冀州",
            "province": "河北",
            "zone_online": "0",
            "pinyin": "jizhou"
        },
        {
            "city_id": "1067",
            "centerx": "119.165834",
            "district_online": "0",
            "centery": "31.956976",
            "name": "句容",
            "province": "江苏",
            "zone_online": "0",
            "pinyin": "jurong"
        },
        {
            "city_id": "857",
            "centerx": "114.307624",
            "district_online": "1",
            "centery": "34.797683",
            "name": "开封",
            "province": "河南",
            "zone_online": "1",
            "pinyin": "kaifeng"
        },
        {
            "city_id": "523",
            "centerx": 107.987828,
            "district_online": "0",
            "centery": 26.573093,
            "name": "凯里",
            "province": "贵州",
            "zone_online": "0",
            "pinyin": "kaili"
        },
        {
            "city_id": "378",
            "centerx": "112.698534",
            "district_online": "0",
            "centery": "22.376484",
            "name": "开平",
            "province": "广东",
            "zone_online": "0",
            "pinyin": "kaiping"
        },
        {
            "city_id": "2031",
            "centerx": "75.989755",
            "district_online": "1",
            "centery": "39.4704",
            "name": "喀什",
            "province": "新疆",
            "zone_online": "0",
            "pinyin": "kashi"
        },
        {
            "city_id": "1965",
            "centerx": "84.889207",
            "district_online": "1",
            "centery": "45.579889",
            "name": "克拉玛依",
            "province": "新疆",
            "zone_online": "0",
            "pinyin": "kelamayi"
        },
        {
            "city_id": "2009",
            "centerx": "86.155288",
            "district_online": "1",
            "centery": "41.766023",
            "name": "库尔勒",
            "province": "新疆",
            "zone_online": "1",
            "pinyin": "kuerle"
        },
        {
            "city_id": "1981",
            "centerx": "84.903267",
            "district_online": "0",
            "centery": "44.426529",
            "name": "奎屯",
            "province": "新疆",
            "zone_online": "0",
            "pinyin": "kuitun"
        },
        {
            "city_id": "2179",
            "centerx": "102.722202",
            "district_online": "1",
            "centery": "25.037721",
            "name": "昆明",
            "province": "云南",
            "zone_online": "1",
            "pinyin": "kunming"
        },
        {
            "city_id": "1083",
            "centerx": "120.98115",
            "district_online": "1",
            "centery": "31.384913",
            "name": "昆山",
            "province": "江苏",
            "zone_online": "1",
            "pinyin": "kunshan"
        },
        {
            "city_id": "450206",
            "centerx": 109.227218,
            "district_online": "1",
            "centery": 23.756845,
            "name": "来宾区",
            "province": "广西",
            "zone_online": "0",
            "pinyin": "laibinqu"
        },
        {
            "city_id": "1600",
            "centerx": "117.676731",
            "district_online": "1",
            "centery": "36.213691",
            "name": "莱芜",
            "province": "山东",
            "zone_online": "1",
            "pinyin": "laiwu"
        },
        {
            "city_id": "1578",
            "centerx": "120.711725",
            "district_online": "0",
            "centery": "36.978457",
            "name": "莱阳",
            "province": "山东",
            "zone_online": "0",
            "pinyin": "laiyang"
        },
        {
            "city_id": "627",
            "centerx": "116.706651",
            "district_online": "1",
            "centery": "39.521017",
            "name": "廊坊",
            "province": "河北",
            "zone_online": "0",
            "pinyin": "langfang"
        },
        {
            "city_id": "2282",
            "centerx": "119.460502",
            "district_online": "0",
            "centery": "29.208542",
            "name": "兰溪",
            "province": "浙江",
            "zone_online": "0",
            "pinyin": "lanxi"
        },
        {
            "city_id": "242",
            "centerx": "103.834377",
            "district_online": "1",
            "centery": "36.061255",
            "name": "兰州",
            "province": "甘肃",
            "zone_online": "1",
            "pinyin": "lanzhou"
        },
        {
            "city_id": "2093",
            "centerx": "91.140856",
            "district_online": "1",
            "centery": "29.645554",
            "name": "拉萨",
            "province": "西藏",
            "zone_online": "1",
            "pinyin": "lasa"
        },
        {
            "city_id": "2397",
            "centerx": "112.860208",
            "district_online": "0",
            "centery": "26.421562",
            "name": "耒阳",
            "province": "湖南",
            "zone_online": "0",
            "pinyin": "leiyang"
        },
        {
            "city_id": "1548",
            "centerx": "117.231935",
            "district_online": "0",
            "centery": "37.729907",
            "name": "乐陵",
            "province": "山东",
            "zone_online": "0",
            "pinyin": "leling"
        },
        {
            "city_id": "2366",
            "centerx": "111.434984",
            "district_online": "0",
            "centery": "27.686252",
            "name": "冷水江",
            "province": "湖南",
            "zone_online": "0",
            "pinyin": "lengshuijiang"
        },
        {
            "city_id": "1104",
            "centerx": "117.129169",
            "district_online": "1",
            "centery": "28.961902",
            "name": "乐平",
            "province": "江西",
            "zone_online": "0",
            "pinyin": "leping"
        },
        {
            "city_id": "2301",
            "centerx": "120.962198",
            "district_online": "0",
            "centery": "28.122909",
            "name": "乐清",
            "province": "浙江",
            "zone_online": "0",
            "pinyin": "leqing"
        },
        {
            "city_id": "1883",
            "centerx": "103.765623",
            "district_online": "1",
            "centery": "29.552064",
            "name": "乐山",
            "province": "四川",
            "zone_online": "0",
            "pinyin": "leshan"
        },
        {
            "city_id": "1026",
            "centerx": "119.221282",
            "district_online": "1",
            "centery": "34.596544",
            "name": "连云港",
            "province": "江苏",
            "zone_online": "1",
            "pinyin": "lianyungang"
        },
        {
            "city_id": "1594",
            "centerx": "115.985371",
            "district_online": "1",
            "centery": "36.456704",
            "name": "聊城",
            "province": "山东",
            "zone_online": "1",
            "pinyin": "liaocheng"
        },
        {
            "city_id": "1263",
            "centerx": "123.172838",
            "district_online": "1",
            "centery": "41.269493",
            "name": "辽阳",
            "province": "辽宁",
            "zone_online": "0",
            "pinyin": "liaoyang"
        },
        {
            "city_id": "1230",
            "centerx": "125.143532",
            "district_online": "1",
            "centery": "42.887918",
            "name": "辽源",
            "province": "吉林",
            "zone_online": "0",
            "pinyin": "liaoyuan"
        },
        {
            "city_id": "2139",
            "centerx": "100.230376",
            "district_online": "1",
            "centery": "26.876774",
            "name": "丽江",
            "province": "云南",
            "zone_online": "1",
            "pinyin": "lijiang"
        },
        {
            "city_id": "2364",
            "centerx": "113.496868",
            "district_online": "0",
            "centery": "27.646144",
            "name": "醴陵",
            "province": "湖南",
            "zone_online": "0",
            "pinyin": "liling"
        },
        {
            "city_id": "2261",
            "centerx": "119.724733",
            "district_online": "0",
            "centery": "30.233873",
            "name": "临安",
            "province": "浙江",
            "zone_online": "0",
            "pinyin": "linan"
        },
        {
            "city_id": "2211",
            "centerx": "100.079583",
            "district_online": "1",
            "centery": "23.877573",
            "name": "临沧",
            "province": "云南",
            "zone_online": "1",
            "pinyin": "lincang"
        },
        {
            "city_id": "1749",
            "centerx": "111.51888",
            "district_online": "1",
            "centery": "36.088067",
            "name": "临汾",
            "province": "山西",
            "zone_online": "1",
            "pinyin": "linfen"
        },
        {
            "city_id": "513507",
            "centerx": "0.00000",
            "district_online": "1",
            "centery": "0.00000",
            "name": "临高",
            "province": "海南",
            "zone_online": "0",
            "pinyin": "lingao"
        },
        {
            "city_id": "866",
            "centerx": "110.894206",
            "district_online": "0",
            "centery": "34.516839",
            "name": "灵宝",
            "province": "河南",
            "zone_online": "0",
            "pinyin": "lingbao"
        },
        {
            "city_id": "513503",
            "centerx": "0.00000",
            "district_online": "1",
            "centery": "0.00000",
            "name": "陵水",
            "province": "海南",
            "zone_online": "0",
            "pinyin": "lingshui"
        },
        {
            "city_id": "2291",
            "centerx": "121.144952",
            "district_online": "1",
            "centery": "28.858511",
            "name": "临海",
            "province": "浙江",
            "zone_online": "0",
            "pinyin": "linhai"
        },
        {
            "city_id": "1224",
            "centerx": "126.918138",
            "district_online": "0",
            "centery": "41.812005",
            "name": "临江",
            "province": "吉林",
            "zone_online": "0",
            "pinyin": "linjiang"
        },
        {
            "city_id": "258",
            "centerx": "103.210539",
            "district_online": "1",
            "centery": "35.601182",
            "name": "临夏",
            "province": "甘肃",
            "zone_online": "1",
            "pinyin": "linxia"
        },
        {
            "city_id": "1637",
            "centerx": "118.347707",
            "district_online": "1",
            "centery": "35.051712",
            "name": "临沂",
            "province": "山东",
            "zone_online": "1",
            "pinyin": "linyi"
        },
        {
            "city_id": "2298",
            "centerx": "119.922796",
            "district_online": "1",
            "centery": "28.46763",
            "name": "丽水",
            "province": "浙江",
            "zone_online": "1",
            "pinyin": "lishui"
        },
        {
            "city_id": "321400",
            "centerx": 119.034807,
            "district_online": "1",
            "centery": 31.657289,
            "name": "溧水",
            "province": "江苏",
            "zone_online": "1",
            "pinyin": "lishuijs"
        },
        {
            "city_id": "36",
            "centerx": "116.505693",
            "district_online": "1",
            "centery": "31.745011",
            "name": "六安",
            "province": "安徽",
            "zone_online": "0",
            "pinyin": "liuan"
        },
        {
            "city_id": "526",
            "centerx": "104.830361",
            "district_online": "1",
            "centery": "26.592663",
            "name": "六盘水",
            "province": "贵州",
            "zone_online": "0",
            "pinyin": "liupanshui"
        },
        {
            "city_id": "2346",
            "centerx": "113.64328",
            "district_online": "0",
            "centery": "28.16379",
            "name": "浏阳",
            "province": "湖南",
            "zone_online": "0",
            "pinyin": "liuyang"
        },
        {
            "city_id": "427",
            "centerx": "109.415912",
            "district_online": "1",
            "centery": "24.325468",
            "name": "柳州",
            "province": "广西",
            "zone_online": "1",
            "pinyin": "liuzhou"
        },
        {
            "city_id": "440307",
            "centerx": 114.254129,
            "district_online": "0",
            "centery": 22.726549,
            "name": "龙岗",
            "province": "广东",
            "zone_online": "0",
            "pinyin": "longgang"
        },
        {
            "city_id": "460106",
            "centerx": 113.962415,
            "district_online": "0",
            "centery": 22.962862,
            "name": "龙华",
            "province": "广东",
            "zone_online": "0",
            "pinyin": "longhua"
        },
        {
            "city_id": "1551",
            "centerx": 120.482555,
            "district_online": "0",
            "centery": 37.650925,
            "name": "龙口",
            "province": "山东",
            "zone_online": "0",
            "pinyin": "longkou"
        },
        {
            "city_id": "304",
            "centerx": "114.254789",
            "district_online": "0",
            "centery": "23.727747",
            "name": "龙门",
            "province": "广东",
            "zone_online": "0",
            "pinyin": "longmen"
        },
        {
            "city_id": "293",
            "centerx": "104.922071",
            "district_online": "1",
            "centery": "33.400766",
            "name": "陇南",
            "province": "甘肃",
            "zone_online": "0",
            "pinyin": "longnan"
        },
        {
            "city_id": "2304",
            "centerx": "119.141461",
            "district_online": "0",
            "centery": "28.074623",
            "name": "龙泉",
            "province": "浙江",
            "zone_online": "0",
            "pinyin": "longquan"
        },
        {
            "city_id": "185",
            "centerx": "117.03403",
            "district_online": "1",
            "centery": "25.100632",
            "name": "龙岩",
            "province": "福建",
            "zone_online": "1",
            "pinyin": "longyan"
        },
        {
            "city_id": "2409",
            "centerx": "113.684981",
            "district_online": "1",
            "centery": "25.550507",
            "name": "娄底",
            "province": "湖南",
            "zone_online": "1",
            "pinyin": "loudi"
        },
        {
            "city_id": "131500",
            "centerx": "0.00000",
            "district_online": "0",
            "centery": "0.00000",
            "name": "栾城县",
            "province": "河北",
            "zone_online": "0",
            "pinyin": "luancheng"
        },
        {
            "city_id": "905",
            "centerx": "114.016539",
            "district_online": "1",
            "centery": "33.581413",
            "name": "漯河",
            "province": "河南",
            "zone_online": "1",
            "pinyin": "luohe"
        },
        {
            "city_id": "865",
            "centerx": "112.454363",
            "district_online": "1",
            "centery": "34.618154",
            "name": "洛阳",
            "province": "河南",
            "zone_online": "1",
            "pinyin": "luoyang"
        },
        {
            "city_id": "677",
            "centerx": "114.322245",
            "district_online": "0",
            "centery": "38.082",
            "name": "鹿泉",
            "province": "河北",
            "zone_online": "0",
            "pinyin": "luquan"
        },
        {
            "city_id": "1904",
            "centerx": "105.442263",
            "district_online": "1",
            "centery": "28.871864",
            "name": "泸州",
            "province": "四川",
            "zone_online": "1",
            "pinyin": "luzhou"
        },
        {
            "city_id": "1713",
            "centerx": "111.144231",
            "district_online": "1",
            "centery": "37.518569",
            "name": "吕梁",
            "province": "山西",
            "zone_online": "0",
            "pinyin": "lvliang"
        },
        {
            "city_id": "43",
            "centerx": "118.504657",
            "district_online": "1",
            "centery": "31.696788",
            "name": "马鞍山",
            "province": "安徽",
            "zone_online": "1",
            "pinyin": "maanshan"
        },
        {
            "city_id": "386",
            "centerx": "110.925456",
            "district_online": "1",
            "centery": "21.662999",
            "name": "茂名",
            "province": "广东",
            "zone_online": "1",
            "pinyin": "maoming"
        },
        {
            "city_id": "1215",
            "centerx": "125.683832",
            "district_online": "0",
            "centery": "42.530341",
            "name": "梅河口",
            "province": "吉林",
            "zone_online": "0",
            "pinyin": "meihekou"
        },
        {
            "city_id": "1870",
            "centerx": "103.848462",
            "district_online": "1",
            "centery": "30.076015",
            "name": "眉山",
            "province": "四川",
            "zone_online": "1",
            "pinyin": "meishan"
        },
        {
            "city_id": "342",
            "centerx": "116.122469",
            "district_online": "1",
            "centery": "24.288384",
            "name": "梅州",
            "province": "广东",
            "zone_online": "1",
            "pinyin": "meizhou"
        },
        {
            "city_id": "850",
            "centerx": "112.791402",
            "district_online": "0",
            "centery": "34.907315",
            "name": "孟州",
            "province": "河南",
            "zone_online": "0",
            "pinyin": "mengzhou"
        },
        {
            "city_id": "2229",
            "centerx": "103.388084",
            "district_online": "0",
            "centery": "23.365615",
            "name": "蒙自",
            "province": "云南",
            "zone_online": "0",
            "pinyin": "mengzi"
        },
        {
            "city_id": "1811",
            "centerx": "104.679114",
            "district_online": "1",
            "centery": "31.46745",
            "name": "绵阳",
            "province": "四川",
            "zone_online": "1",
            "pinyin": "mianyang"
        },
        {
            "city_id": "514000",
            "centerx": 104.227605,
            "district_online": "1",
            "centery": 31.344119,
            "name": "绵竹",
            "province": "四川",
            "zone_online": "1",
            "pinyin": "mianzhu"
        },
        {
            "city_id": "18",
            "centerx": "117.989272",
            "district_online": "0",
            "centery": "32.777089",
            "name": "明光",
            "province": "安徽",
            "zone_online": "0",
            "pinyin": "mingguang"
        },
        {
            "city_id": "813",
            "centerx": "129.632076",
            "district_online": "1",
            "centery": "44.551439",
            "name": "牡丹江",
            "province": "黑龙江",
            "zone_online": "0",
            "pinyin": "mudanjiang"
        },
        {
            "city_id": "190",
            "centerx": "118.386279",
            "district_online": "1",
            "centery": "24.960385",
            "name": "南安",
            "province": "福建",
            "zone_online": "1",
            "pinyin": "nanan"
        },
        {
            "city_id": "1111",
            "centerx": "115.858089",
            "district_online": "1",
            "centery": "28.68316",
            "name": "南昌",
            "province": "江西",
            "zone_online": "1",
            "pinyin": "nanchang"
        },
        {
            "city_id": "1838",
            "centerx": "106.110595",
            "district_online": "1",
            "centery": "30.837888",
            "name": "南充",
            "province": "四川",
            "zone_online": "1",
            "pinyin": "nanchong"
        },
        {
            "city_id": "708",
            "centerx": "115.386698",
            "district_online": "0",
            "centery": "37.361496",
            "name": "南宫",
            "province": "河北",
            "zone_online": "0",
            "pinyin": "nangong"
        },
        {
            "city_id": "440605",
            "centerx": "0.00000",
            "district_online": "0",
            "centery": "0.00000",
            "name": "南海",
            "province": "广东",
            "zone_online": "0",
            "pinyin": "nanhai"
        },
        {
            "city_id": "1059",
            "centerx": "118.796877",
            "district_online": "1",
            "centery": "32.060255",
            "name": "南京",
            "province": "江苏",
            "zone_online": "1",
            "pinyin": "nanjing"
        },
        {
            "city_id": "1168",
            "centerx": "114.765118",
            "district_online": "0",
            "centery": "25.661232",
            "name": "南康",
            "province": "江西",
            "zone_online": "0",
            "pinyin": "nankang"
        },
        {
            "city_id": "462",
            "centerx": "108.365631",
            "district_online": "1",
            "centery": "22.817642",
            "name": "南宁",
            "province": "广西",
            "zone_online": "1",
            "pinyin": "nanning"
        },
        {
            "city_id": "161",
            "centerx": "118.17739",
            "district_online": "1",
            "centery": "26.641671",
            "name": "南平",
            "province": "福建",
            "zone_online": "0",
            "pinyin": "nanping"
        },
        {
            "city_id": "1071",
            "centerx": "120.894324",
            "district_online": "1",
            "centery": "31.979997",
            "name": "南通",
            "province": "江苏",
            "zone_online": "1",
            "pinyin": "nantong"
        },
        {
            "city_id": "920",
            "centerx": "112.528345",
            "district_online": "1",
            "centery": "32.990615",
            "name": "南阳",
            "province": "河南",
            "zone_online": "0",
            "pinyin": "nanyang"
        },
        {
            "city_id": "1881",
            "centerx": "105.058352",
            "district_online": "1",
            "centery": "29.580237",
            "name": "内江",
            "province": "四川",
            "zone_online": "1",
            "pinyin": "neijiang"
        },
        {
            "city_id": "2268",
            "centerx": "121.54399",
            "district_online": "1",
            "centery": "29.868336",
            "name": "宁波",
            "province": "浙江",
            "zone_online": "1",
            "pinyin": "ningbo"
        },
        {
            "city_id": "159",
            "centerx": "119.526287",
            "district_online": "1",
            "centery": "26.666291",
            "name": "宁德",
            "province": "福建",
            "zone_online": "1",
            "pinyin": "ningde"
        },
        {
            "city_id": "66",
            "centerx": "118.982981",
            "district_online": "0",
            "centery": "30.633572",
            "name": "宁国",
            "province": "安徽",
            "zone_online": "0",
            "pinyin": "ningguo"
        },
        {
            "city_id": "1266",
            "centerx": "122.070714",
            "district_online": "1",
            "centery": "41.119997",
            "name": "盘锦",
            "province": "辽宁",
            "zone_online": "1",
            "pinyin": "panjin"
        },
        {
            "city_id": "1208",
            "centerx": "126.060427",
            "district_online": "0",
            "centery": "42.946285",
            "name": "磐石",
            "province": "吉林",
            "zone_online": "0",
            "pinyin": "panshi"
        },
        {
            "city_id": "1934",
            "centerx": "101.718637",
            "district_online": "1",
            "centery": "26.582347",
            "name": "攀枝花",
            "province": "四川",
            "zone_online": "0",
            "pinyin": "panzhihua"
        },
        {
            "city_id": "1024",
            "centerx": "116.937532",
            "district_online": "0",
            "centery": "34.721656",
            "name": "沛县",
            "province": "江苏",
            "zone_online": "0",
            "pinyin": "peixian"
        },
        {
            "city_id": "1547",
            "centerx": "120.758848",
            "district_online": "0",
            "centery": "37.810661",
            "name": "蓬莱",
            "province": "山东",
            "zone_online": "0",
            "pinyin": "penglai"
        },
        {
            "city_id": "513600",
            "centerx": 103.964533,
            "district_online": "1",
            "centery": 30.995997,
            "name": "彭州",
            "province": "四川",
            "zone_online": "0",
            "pinyin": "pengzhou"
        },
        {
            "city_id": "901",
            "centerx": "113.192814",
            "district_online": "1",
            "centery": "33.76619",
            "name": "平顶山",
            "province": "河南",
            "zone_online": "0",
            "pinyin": "pingdingshan"
        },
        {
            "city_id": "1585",
            "centerx": "119.960014",
            "district_online": "0",
            "centery": "36.7867",
            "name": "平度",
            "province": "山东",
            "zone_online": "0",
            "pinyin": "pingdu"
        },
        {
            "city_id": "257",
            "centerx": "106.665106",
            "district_online": "1",
            "centery": "35.542686",
            "name": "平凉",
            "province": "甘肃",
            "zone_online": "0",
            "pinyin": "pingliang"
        },
        {
            "city_id": "1146",
            "centerx": "113.854676",
            "district_online": "1",
            "centery": "27.622865",
            "name": "萍乡",
            "province": "江西",
            "zone_online": "1",
            "pinyin": "pingxiang"
        },
        {
            "city_id": "1028",
            "centerx": "118.012497",
            "district_online": "0",
            "centery": "34.339032",
            "name": "邳州",
            "province": "江苏",
            "zone_online": "0",
            "pinyin": "pizhou"
        },
        {
            "city_id": "1094",
            "centerx": "116.674436",
            "district_online": "0",
            "centery": "28.996789",
            "name": "鄱阳",
            "province": "江西",
            "zone_online": "0",
            "pinyin": "poyang"
        },
        {
            "city_id": "2228",
            "centerx": "101.112109",
            "district_online": "1",
            "centery": "23.105875",
            "name": "普洱",
            "province": "云南",
            "zone_online": "0",
            "pinyin": "puer"
        },
        {
            "city_id": "1286",
            "centerx": "121.963363",
            "district_online": "0",
            "centery": "39.394339",
            "name": "普兰店",
            "province": "辽宁",
            "zone_online": "0",
            "pinyin": "pulandian"
        },
        {
            "city_id": "183",
            "centerx": "119.007715",
            "district_online": "1",
            "centery": "25.454098",
            "name": "莆田",
            "province": "福建",
            "zone_online": "1",
            "pinyin": "putian"
        },
        {
            "city_id": "829",
            "centerx": "115.029331",
            "district_online": "1",
            "centery": "35.762141",
            "name": "濮阳",
            "province": "河南",
            "zone_online": "1",
            "pinyin": "puyang"
        },
        {
            "city_id": "613",
            "centerx": "118.701147",
            "district_online": "0",
            "centery": "39.999088",
            "name": "迁安",
            "province": "河北",
            "zone_online": "0",
            "pinyin": "qianan"
        },
        {
            "city_id": "522600",
            "centerx": 107.988515,
            "district_online": "1",
            "centery": 26.590324,
            "name": "黔东南",
            "province": "贵州",
            "zone_online": "0",
            "pinyin": "qiandongnan"
        },
        {
            "city_id": "994",
            "centerx": "112.900079",
            "district_online": "0",
            "centery": "30.40211",
            "name": "潜江",
            "province": "湖北",
            "zone_online": "0",
            "pinyin": "qianjiang"
        },
        {
            "city_id": "522700",
            "centerx": 104.912056,
            "district_online": "0",
            "centery": 25.103001,
            "name": "黔西南",
            "province": "贵州",
            "zone_online": "0",
            "pinyin": "qianxinan"
        },
        {
            "city_id": "1069",
            "centerx": "121.657428",
            "district_online": "0",
            "centery": "31.80822",
            "name": "启东",
            "province": "江苏",
            "zone_online": "0",
            "pinyin": "qidong"
        },
        {
            "city_id": "1605",
            "centerx": "120.382504",
            "district_online": "1",
            "centery": "36.06722",
            "name": "青岛",
            "province": "山东",
            "zone_online": "1",
            "pinyin": "qingdao"
        },
        {
            "city_id": "1391",
            "centerx": "106.078751",
            "district_online": "1",
            "centery": "38.021259",
            "name": "青铜峡",
            "province": "宁夏",
            "zone_online": "1",
            "pinyin": "qingtongxia"
        },
        {
            "city_id": "253",
            "centerx": "107.632469",
            "district_online": "1",
            "centery": "35.738668",
            "name": "庆阳",
            "province": "甘肃",
            "zone_online": "1",
            "pinyin": "qingyang"
        },
        {
            "city_id": "307",
            "centerx": "113.056042",
            "district_online": "1",
            "centery": "23.681801",
            "name": "清远",
            "province": "广东",
            "zone_online": "1",
            "pinyin": "qingyuan"
        },
        {
            "city_id": "1589",
            "centerx": "118.479534",
            "district_online": "0",
            "centery": "36.685074",
            "name": "青州",
            "province": "山东",
            "zone_online": "0",
            "pinyin": "qingzhou"
        },
        {
            "city_id": "616",
            "centerx": "119.600492",
            "district_online": "1",
            "centery": "39.935377",
            "name": "秦皇岛",
            "province": "河北",
            "zone_online": "1",
            "pinyin": "qinhuangdao"
        },
        {
            "city_id": "842",
            "centerx": "112.950716",
            "district_online": "0",
            "centery": "35.087539",
            "name": "沁阳",
            "province": "河南",
            "zone_online": "0",
            "pinyin": "qinyang"
        },
        {
            "city_id": "470",
            "centerx": "108.654543",
            "district_online": "1",
            "centery": "21.980968",
            "name": "钦州",
            "province": "广西",
            "zone_online": "1",
            "pinyin": "qinzhou"
        },
        {
            "city_id": "460400",
            "centerx": "0.00000",
            "district_online": "1",
            "centery": "0.00000",
            "name": "琼海",
            "province": "海南",
            "zone_online": "1",
            "pinyin": "qionghai"
        },
        {
            "city_id": "762",
            "centerx": "123.918042",
            "district_online": "1",
            "centery": "47.354453",
            "name": "齐齐哈尔",
            "province": "黑龙江",
            "zone_online": "1",
            "pinyin": "qiqihaer"
        },
        {
            "city_id": "797",
            "centerx": "131.004915",
            "district_online": "1",
            "centery": "45.771975",
            "name": "七台河",
            "province": "黑龙江",
            "zone_online": "0",
            "pinyin": "qitaihe"
        },
        {
            "city_id": "9999",
            "centerx": "0.00000",
            "district_online": "0",
            "centery": "0.00000",
            "name": "全国",
            "province": null,
            "zone_online": "0",
            "pinyin": "quanguo"
        },
        {
            "city_id": "191",
            "centerx": "118.586812",
            "district_online": "1",
            "centery": "24.907574",
            "name": "泉州",
            "province": "福建",
            "zone_online": "1",
            "pinyin": "quanzhou"
        },
        {
            "city_id": "1622",
            "centerx": "116.986532",
            "district_online": "0",
            "centery": "35.581137",
            "name": "曲阜",
            "province": "山东",
            "zone_online": "0",
            "pinyin": "qufu"
        },
        {
            "city_id": "2170",
            "centerx": "103.796293",
            "district_online": "1",
            "centery": "25.48999",
            "name": "曲靖",
            "province": "云南",
            "zone_online": "1",
            "pinyin": "qujing"
        },
        {
            "city_id": "2284",
            "centerx": "118.874375",
            "district_online": "1",
            "centery": "28.93581",
            "name": "衢州",
            "province": "浙江",
            "zone_online": "0",
            "pinyin": "quzhou"
        },
        {
            "city_id": "490",
            "centerx": "106.40115",
            "district_online": "0",
            "centery": "27.791979",
            "name": "仁怀",
            "province": "贵州",
            "zone_online": "0",
            "pinyin": "renhuai"
        },
        {
            "city_id": "650",
            "centerx": "116.099562",
            "district_online": "0",
            "centery": "38.711812",
            "name": "任丘",
            "province": "河北",
            "zone_online": "0",
            "pinyin": "renqiu"
        },
        {
            "city_id": "1629",
            "centerx": "119.526888",
            "district_online": "1",
            "centery": "35.416377",
            "name": "日照",
            "province": "山东",
            "zone_online": "1",
            "pinyin": "rizhao"
        },
        {
            "city_id": "321700",
            "centerx": "0.00000",
            "district_online": "0",
            "centery": "0.00000",
            "name": "如东",
            "province": "江苏",
            "zone_online": "0",
            "pinyin": "rudong"
        },
        {
            "city_id": "1062",
            "centerx": "120.575669",
            "district_online": "0",
            "centery": "32.36966",
            "name": "如皋",
            "province": "江苏",
            "zone_online": "0",
            "pinyin": "rugao"
        },
        {
            "city_id": "2300",
            "centerx": "119.482028",
            "district_online": "0",
            "centery": "28.449134",
            "name": "瑞安",
            "province": "浙江",
            "zone_online": "0",
            "pinyin": "ruian"
        },
        {
            "city_id": "1166",
            "centerx": "116.02713",
            "district_online": "0",
            "centery": "25.885561",
            "name": "瑞金",
            "province": "江西",
            "zone_online": "0",
            "pinyin": "ruijin"
        },
        {
            "city_id": "2215",
            "centerx": "97.851885",
            "district_online": "0",
            "centery": "24.012777",
            "name": "瑞丽",
            "province": "云南",
            "zone_online": "0",
            "pinyin": "ruili"
        },
        {
            "city_id": "884",
            "centerx": "112.844649",
            "district_online": "0",
            "centery": "34.167405",
            "name": "汝州",
            "province": "河南",
            "zone_online": "0",
            "pinyin": "ruzhou"
        },
        {
            "city_id": "617",
            "centerx": "117.078295",
            "district_online": "0",
            "centery": "39.982718",
            "name": "三河",
            "province": "河北",
            "zone_online": "0",
            "pinyin": "sanhe"
        },
        {
            "city_id": "861",
            "centerx": "111.20023",
            "district_online": "1",
            "centery": "34.772424",
            "name": "三门峡",
            "province": "河南",
            "zone_online": "1",
            "pinyin": "sanmenxia"
        },
        {
            "city_id": "170",
            "centerx": "117.638709",
            "district_online": "1",
            "centery": "26.263432",
            "name": "三明",
            "province": "福建",
            "zone_online": "1",
            "pinyin": "sanming"
        },
        {
            "city_id": "361300",
            "centerx": "0.00000",
            "district_online": "0",
            "centery": "0.00000",
            "name": "三清山",
            "province": "江西",
            "zone_online": "0",
            "pinyin": "sanqingshan"
        },
        {
            "city_id": "440607",
            "centerx": 112.903222,
            "district_online": "1",
            "centery": 23.16205,
            "name": "三水",
            "province": "广东",
            "zone_online": "1",
            "pinyin": "sanshui"
        },
        {
            "city_id": "578",
            "centerx": "109.511909",
            "district_online": "1",
            "centery": "18.252847",
            "name": "三亚",
            "province": "海南",
            "zone_online": "1",
            "pinyin": "sanya"
        },
        {
            "city_id": "719",
            "centerx": "114.503325",
            "district_online": "0",
            "centery": "36.854952",
            "name": "沙河",
            "province": "河北",
            "zone_online": "0",
            "pinyin": "shahe"
        },
        {
            "city_id": "2421",
            "centerx": "121.473704",
            "district_online": "1",
            "centery": "31.230393",
            "name": "上海",
            "province": "上海",
            "zone_online": "1",
            "pinyin": "shanghai"
        },
        {
            "city_id": "1513",
            "centerx": "109.940477",
            "district_online": "1",
            "centery": "33.870422",
            "name": "商洛",
            "province": "陕西",
            "zone_online": "0",
            "pinyin": "shangluo"
        },
        {
            "city_id": "870",
            "centerx": "115.656394",
            "district_online": "1",
            "centery": "34.414183",
            "name": "商丘",
            "province": "河南",
            "zone_online": "1",
            "pinyin": "shangqiu"
        },
        {
            "city_id": "1122",
            "centerx": "117.976371",
            "district_online": "1",
            "centery": "28.443318",
            "name": "上饶",
            "province": "江西",
            "zone_online": "1",
            "pinyin": "shangrao"
        },
        {
            "city_id": "2264",
            "centerx": "120.877034",
            "district_online": "0",
            "centery": "30.012972",
            "name": "上虞",
            "province": "浙江",
            "zone_online": "0",
            "pinyin": "shangyu"
        },
        {
            "city_id": "353",
            "centerx": "116.681943",
            "district_online": "1",
            "centery": "23.353362",
            "name": "汕头",
            "province": "广东",
            "zone_online": "1",
            "pinyin": "shantou"
        },
        {
            "city_id": "370",
            "centerx": "115.375263",
            "district_online": "1",
            "centery": "22.78585",
            "name": "汕尾",
            "province": "广东",
            "zone_online": "0",
            "pinyin": "shanwei"
        },
        {
            "city_id": "330",
            "centerx": "113.597522",
            "district_online": "1",
            "centery": "24.810403",
            "name": "韶关",
            "province": "广东",
            "zone_online": "1",
            "pinyin": "shaoguan"
        },
        {
            "city_id": "2360",
            "centerx": "112.526502",
            "district_online": "0",
            "centery": "27.915005",
            "name": "韶山",
            "province": "湖南",
            "zone_online": "0",
            "pinyin": "shaoshan"
        },
        {
            "city_id": "2267",
            "centerx": "120.586109",
            "district_online": "1",
            "centery": "29.995762",
            "name": "绍兴",
            "province": "浙江",
            "zone_online": "1",
            "pinyin": "shaoxing"
        },
        {
            "city_id": "2381",
            "centerx": "111.468236",
            "district_online": "1",
            "centery": "27.239973",
            "name": "邵阳",
            "province": "湖南",
            "zone_online": "1",
            "pinyin": "shaoyang"
        },
        {
            "city_id": "2272",
            "centerx": "120.821587",
            "district_online": "0",
            "centery": "29.588497",
            "name": "嵊州",
            "province": "浙江",
            "zone_online": "0",
            "pinyin": "shengzhou"
        },
        {
            "city_id": "1242",
            "centerx": "123.43147",
            "district_online": "1",
            "centery": "41.80572",
            "name": "沈阳",
            "province": "辽宁",
            "zone_online": "1",
            "pinyin": "shenyang"
        },
        {
            "city_id": "372",
            "centerx": "114.057868",
            "district_online": "1",
            "centery": "22.543099",
            "name": "深圳",
            "province": "广东",
            "zone_online": "1",
            "pinyin": "shenzhen"
        },
        {
            "city_id": "681",
            "centerx": "115.560018",
            "district_online": "0",
            "centery": "38.000819",
            "name": "深州",
            "province": "河北",
            "zone_online": "0",
            "pinyin": "shenzhou"
        },
        {
            "city_id": "1038",
            "centerx": "120.258053",
            "district_online": "0",
            "centery": "33.774806",
            "name": "射阳县",
            "province": "江苏",
            "zone_online": "0",
            "pinyin": "sheyangxian"
        },
        {
            "city_id": "513900",
            "centerx": 104.173661,
            "district_online": "1",
            "centery": 31.133716,
            "name": "什邡",
            "province": "四川",
            "zone_online": "1",
            "pinyin": "shifang"
        },
        {
            "city_id": "1983",
            "centerx": "86.080497",
            "district_online": "0",
            "centery": "44.306119",
            "name": "石河子",
            "province": "新疆",
            "zone_online": "0",
            "pinyin": "shihezi"
        },
        {
            "city_id": "683",
            "centerx": "114.51486",
            "district_online": "1",
            "centery": "38.042307",
            "name": "石家庄",
            "province": "河北",
            "zone_online": "1",
            "pinyin": "shijiazhuang"
        },
        {
            "city_id": "900",
            "centerx": "112.898798",
            "district_online": "0",
            "centery": "33.89878",
            "name": "石龙",
            "province": "河南",
            "zone_online": "0",
            "pinyin": "shilong"
        },
        {
            "city_id": "199",
            "centerx": "118.64794",
            "district_online": "1",
            "centery": "24.732246",
            "name": "石狮",
            "province": "福建",
            "zone_online": "1",
            "pinyin": "shishi"
        },
        {
            "city_id": "949",
            "centerx": "110.788811",
            "district_online": "1",
            "centery": "32.65059",
            "name": "十堰",
            "province": "湖北",
            "zone_online": "1",
            "pinyin": "shiyan"
        },
        {
            "city_id": "1385",
            "centerx": "106.368062",
            "district_online": "1",
            "centery": "39.019057",
            "name": "石嘴山",
            "province": "宁夏",
            "zone_online": "1",
            "pinyin": "shizuishan"
        },
        {
            "city_id": "1571",
            "centerx": "118.740775",
            "district_online": "1",
            "centery": "36.881113",
            "name": "寿光",
            "province": "山东",
            "zone_online": "1",
            "pinyin": "shouguang"
        },
        {
            "city_id": "1201",
            "centerx": "123.502586",
            "district_online": "0",
            "centery": "43.518287",
            "name": "双辽",
            "province": "吉林",
            "zone_online": "0",
            "pinyin": "shuangliao"
        },
        {
            "city_id": "786",
            "centerx": "131.159553",
            "district_online": "1",
            "centery": "46.646923",
            "name": "双鸭山",
            "province": "黑龙江",
            "zone_online": "0",
            "pinyin": "shuangyashan"
        },
        {
            "city_id": "1193",
            "centerx": "126.965922",
            "district_online": "0",
            "centery": "44.406254",
            "name": "舒兰",
            "province": "吉林",
            "zone_online": "0",
            "pinyin": "shulan"
        },
        {
            "city_id": "440606",
            "centerx": 113.30072,
            "district_online": "1",
            "centery": 22.810671,
            "name": "顺德",
            "province": "广东",
            "zone_online": "1",
            "pinyin": "shunde"
        },
        {
            "city_id": "1677",
            "centerx": "112.432714",
            "district_online": "1",
            "centery": "39.331149",
            "name": "朔州",
            "province": "山西",
            "zone_online": "1",
            "pinyin": "shuozhou"
        },
        {
            "city_id": "1035",
            "centerx": "118.768764",
            "district_online": "0",
            "centery": "34.114533",
            "name": "沭阳县",
            "province": "江苏",
            "zone_online": "0",
            "pinyin": "shuyangxian"
        },
        {
            "city_id": "352",
            "centerx": "112.733773",
            "district_online": "1",
            "centery": "23.326504",
            "name": "四会",
            "province": "广东",
            "zone_online": "0",
            "pinyin": "sihui"
        },
        {
            "city_id": "1212",
            "centerx": "124.350352",
            "district_online": "1",
            "centery": "43.166937",
            "name": "四平",
            "province": "吉林",
            "zone_online": "0",
            "pinyin": "siping"
        },
        {
            "city_id": "1184",
            "centerx": "124.825118",
            "district_online": "1",
            "centery": "45.141789",
            "name": "松原",
            "province": "吉林",
            "zone_online": "0",
            "pinyin": "songyuan"
        },
        {
            "city_id": "815",
            "centerx": "131.151738",
            "district_online": "0",
            "centery": "44.41242",
            "name": "绥芬河",
            "province": "黑龙江",
            "zone_online": "0",
            "pinyin": "suifenhe"
        },
        {
            "city_id": "775",
            "centerx": "126.980006",
            "district_online": "1",
            "centery": "46.636631",
            "name": "绥化",
            "province": "黑龙江",
            "zone_online": "0",
            "pinyin": "suihua"
        },
        {
            "city_id": "1854",
            "centerx": "105.568187",
            "district_online": "1",
            "centery": "30.52548",
            "name": "遂宁",
            "province": "四川",
            "zone_online": "0",
            "pinyin": "suining"
        },
        {
            "city_id": "955",
            "centerx": "113.382842",
            "district_online": "1",
            "centery": "31.689958",
            "name": "随州",
            "province": "湖北",
            "zone_online": "0",
            "pinyin": "suizhou"
        },
        {
            "city_id": "1037",
            "centerx": "118.275293",
            "district_online": "1",
            "centery": "33.962071",
            "name": "宿迁",
            "province": "江苏",
            "zone_online": "1",
            "pinyin": "suqian"
        },
        {
            "city_id": "1082",
            "centerx": "120.585316",
            "district_online": "1",
            "centery": "31.298886",
            "name": "苏州",
            "province": "江苏",
            "zone_online": "1",
            "pinyin": "suzhou"
        },
        {
            "city_id": "5",
            "centerx": "116.985301",
            "district_online": "1",
            "centery": "33.639394",
            "name": "宿州",
            "province": "安徽",
            "zone_online": "1",
            "pinyin": "suzhouah"
        },
        {
            "city_id": "1603",
            "centerx": "117.087614",
            "district_online": "1",
            "centery": "36.200252",
            "name": "泰安",
            "province": "山东",
            "zone_online": "1",
            "pinyin": "taian"
        },
        {
            "city_id": "1078",
            "centerx": "121.10892",
            "district_online": "1",
            "centery": "31.449779",
            "name": "太仓",
            "province": "江苏",
            "zone_online": "1",
            "pinyin": "taicang"
        },
        {
            "city_id": "1063",
            "centerx": "120.05167",
            "district_online": "0",
            "centery": "32.171839",
            "name": "泰兴",
            "province": "江苏",
            "zone_online": "0",
            "pinyin": "taixing"
        },
        {
            "city_id": "1709",
            "centerx": "112.550619",
            "district_online": "1",
            "centery": "37.870662",
            "name": "太原",
            "province": "山西",
            "zone_online": "1",
            "pinyin": "taiyuan"
        },
        {
            "city_id": "1061",
            "centerx": "119.923116",
            "district_online": "1",
            "centery": "32.455778",
            "name": "泰州",
            "province": "江苏",
            "zone_online": "0",
            "pinyin": "taizhousd"
        },
        {
            "city_id": "2297",
            "centerx": "121.42084",
            "district_online": "1",
            "centery": "28.656052",
            "name": "台州",
            "province": "浙江",
            "zone_online": "1",
            "pinyin": "taizhouzj"
        },
        {
            "city_id": "618",
            "centerx": "118.180407",
            "district_online": "1",
            "centery": "39.630476",
            "name": "唐山",
            "province": "河北",
            "zone_online": "1",
            "pinyin": "tangshan"
        },
        {
            "city_id": "2430",
            "centerx": 114.079122,
            "district_online": "0",
            "centery": 22.812786,
            "name": "塘厦",
            "province": "广东",
            "zone_online": "0",
            "pinyin": "tangxia"
        },
        {
            "city_id": "1181",
            "centerx": "122.786735",
            "district_online": "0",
            "centery": "45.335961",
            "name": "洮南",
            "province": "吉林",
            "zone_online": "0",
            "pinyin": "taonan"
        },
        {
            "city_id": "1640",
            "centerx": "117.164388",
            "district_online": "0",
            "centery": "35.084021",
            "name": "滕州",
            "province": "山东",
            "zone_online": "0",
            "pinyin": "tengzhou"
        },
        {
            "city_id": "24",
            "centerx": "119.003686",
            "district_online": "0",
            "centery": "32.689438",
            "name": "天长",
            "province": "安徽",
            "zone_online": "0",
            "pinyin": "tianchang"
        },
        {
            "city_id": "2420",
            "centerx": "117.214389",
            "district_online": "1",
            "centery": "39.121079",
            "name": "天津",
            "province": "天津",
            "zone_online": "1",
            "pinyin": "tianjin"
        },
        {
            "city_id": "984",
            "centerx": "113.16653",
            "district_online": "0",
            "centery": "30.663372",
            "name": "天门",
            "province": "湖北",
            "zone_online": "0",
            "pinyin": "tianmen"
        },
        {
            "city_id": "281",
            "centerx": "105.724947",
            "district_online": "1",
            "centery": "34.580862",
            "name": "天水",
            "province": "甘肃",
            "zone_online": "0",
            "pinyin": "tianshui"
        },
        {
            "city_id": "1291",
            "centerx": "123.841819",
            "district_online": "1",
            "centery": "42.286624",
            "name": "铁岭",
            "province": "辽宁",
            "zone_online": "0",
            "pinyin": "tieling"
        },
        {
            "city_id": "54",
            "centerx": "116.950782",
            "district_online": "1",
            "centery": "31.05207",
            "name": "桐城",
            "province": "安徽",
            "zone_online": "0",
            "pinyin": "tongcheng"
        },
        {
            "city_id": "1477",
            "centerx": "108.945142",
            "district_online": "1",
            "centery": "34.896747",
            "name": "铜川",
            "province": "陕西",
            "zone_online": "0",
            "pinyin": "tongchuan"
        },
        {
            "city_id": "1226",
            "centerx": "125.939697",
            "district_online": "1",
            "centery": "41.728401",
            "name": "通化",
            "province": "吉林",
            "zone_online": "1",
            "pinyin": "tonghua"
        },
        {
            "city_id": "1327",
            "centerx": "122.265737",
            "district_online": "1",
            "centery": "43.61944",
            "name": "通辽",
            "province": "内蒙古",
            "zone_online": "1",
            "pinyin": "tongliaoshi"
        },
        {
            "city_id": "61",
            "centerx": "117.810841",
            "district_online": "1",
            "centery": "30.94453",
            "name": "铜陵",
            "province": "安徽",
            "zone_online": "1",
            "pinyin": "tongling"
        },
        {
            "city_id": "2269",
            "centerx": "119.692185",
            "district_online": "1",
            "centery": "29.792949",
            "name": "桐庐",
            "province": "浙江",
            "zone_online": "1",
            "pinyin": "tonglu"
        },
        {
            "city_id": "493",
            "centerx": "109.189598",
            "district_online": "1",
            "centery": "27.731515",
            "name": "铜仁",
            "province": "贵州",
            "zone_online": "0",
            "pinyin": "tongren"
        },
        {
            "city_id": "1086",
            "centerx": "117.169539",
            "district_online": "0",
            "centery": "34.18026",
            "name": "铜山县",
            "province": "江苏",
            "zone_online": "0",
            "pinyin": "tongshanxian"
        },
        {
            "city_id": "2254",
            "centerx": "120.565159",
            "district_online": "1",
            "centery": "30.629877",
            "name": "桐乡",
            "province": "浙江",
            "zone_online": "0",
            "pinyin": "tongxiang"
        },
        {
            "city_id": "1995",
            "centerx": "89.189655",
            "district_online": "1",
            "centery": "42.951384",
            "name": "吐鲁番",
            "province": "新疆",
            "zone_online": "1",
            "pinyin": "tulufan"
        },
        {
            "city_id": "659200",
            "centerx": 79.198155,
            "district_online": "0",
            "centery": 39.889223,
            "name": "图木舒克",
            "province": "新疆",
            "zone_online": "0",
            "pinyin": "tumushuke"
        },
        {
            "city_id": "461000",
            "centerx": "0.00000",
            "district_online": "0",
            "centery": "0.00000",
            "name": "屯昌",
            "province": "海南",
            "zone_online": "0",
            "pinyin": "tunchang"
        },
        {
            "city_id": "1285",
            "centerx": "121.979605",
            "district_online": "0",
            "centery": "39.627118",
            "name": "瓦房店",
            "province": "辽宁",
            "zone_online": "0",
            "pinyin": "wafangdian"
        },
        {
            "city_id": "573",
            "centerx": "110.391073",
            "district_online": "1",
            "centery": "18.795143",
            "name": "万宁",
            "province": "海南",
            "zone_online": "0",
            "pinyin": "wanning"
        },
        {
            "city_id": "500101",
            "centerx": 108.414733,
            "district_online": "1",
            "centery": 30.8137,
            "name": "万州",
            "province": "重庆",
            "zone_online": "1",
            "pinyin": "wanzhou"
        },
        {
            "city_id": "1574",
            "centerx": "119.16193",
            "district_online": "1",
            "centery": "36.706691",
            "name": "潍坊",
            "province": "山东",
            "zone_online": "1",
            "pinyin": "weifang"
        },
        {
            "city_id": "1555",
            "centerx": "122.12042",
            "district_online": "1",
            "centery": "37.513068",
            "name": "威海",
            "province": "山东",
            "zone_online": "1",
            "pinyin": "weihai"
        },
        {
            "city_id": "1490",
            "centerx": "109.509786",
            "district_online": "1",
            "centery": "34.499995",
            "name": "渭南",
            "province": "陕西",
            "zone_online": "1",
            "pinyin": "weinan"
        },
        {
            "city_id": "460300",
            "centerx": 110.804173,
            "district_online": "1",
            "centery": 19.549491,
            "name": "文昌",
            "province": "海南",
            "zone_online": "1",
            "pinyin": "wenchang"
        },
        {
            "city_id": "1567",
            "centerx": "122.058128",
            "district_online": "0",
            "centery": "37.193913",
            "name": "文登",
            "province": "山东",
            "zone_online": "0",
            "pinyin": "wendeng"
        },
        {
            "city_id": "2302",
            "centerx": "121.385181",
            "district_online": "0",
            "centery": "28.3732",
            "name": "温岭",
            "province": "浙江",
            "zone_online": "0",
            "pinyin": "wenling"
        },
        {
            "city_id": "2225",
            "centerx": "104.250725",
            "district_online": "1",
            "centery": "23.362997",
            "name": "文山",
            "province": "云南",
            "zone_online": "0",
            "pinyin": "wenshan"
        },
        {
            "city_id": "2308",
            "centerx": "120.699367",
            "district_online": "1",
            "centery": "27.994267",
            "name": "温州",
            "province": "浙江",
            "zone_online": "1",
            "pinyin": "wenzhou"
        },
        {
            "city_id": "720",
            "centerx": "114.203522",
            "district_online": "0",
            "centery": "36.697244",
            "name": "武安",
            "province": "河北",
            "zone_online": "0",
            "pinyin": "wuan"
        },
        {
            "city_id": "1381",
            "centerx": "106.822809",
            "district_online": "1",
            "centery": "39.690462",
            "name": "乌海",
            "province": "内蒙古",
            "zone_online": "1",
            "pinyin": "wuhai"
        },
        {
            "city_id": "975",
            "centerx": "114.305357",
            "district_online": "1",
            "centery": "30.593087",
            "name": "武汉",
            "province": "湖北",
            "zone_online": "1",
            "pinyin": "wuhan"
        },
        {
            "city_id": "48",
            "centerx": "118.385156",
            "district_online": "1",
            "centery": "31.33879",
            "name": "芜湖",
            "province": "安徽",
            "zone_online": "1",
            "pinyin": "wuhu"
        },
        {
            "city_id": "1084",
            "centerx": "120.644047",
            "district_online": "1",
            "centery": "31.157718",
            "name": "吴江",
            "province": "江苏",
            "zone_online": "0",
            "pinyin": "wujiang"
        },
        {
            "city_id": "659100",
            "centerx": 87.565449,
            "district_online": "0",
            "centery": 44.368896,
            "name": "五家渠",
            "province": "新疆",
            "zone_online": "0",
            "pinyin": "wujiaqu"
        },
        {
            "city_id": "1311",
            "centerx": "122.093004",
            "district_online": "0",
            "centery": "46.073302",
            "name": "乌兰浩特",
            "province": "内蒙古",
            "zone_online": "0",
            "pinyin": "wulahaote"
        },
        {
            "city_id": "150900",
            "centerx": 113.138861,
            "district_online": "1",
            "centery": 41.001132,
            "name": "乌兰察布",
            "province": "内蒙古",
            "zone_online": "1",
            "pinyin": "wulanchabu"
        },
        {
            "city_id": "1990",
            "centerx": "87.617298",
            "district_online": "1",
            "centery": "43.825666",
            "name": "乌鲁木齐",
            "province": "新疆",
            "zone_online": "1",
            "pinyin": "wulumuqi"
        },
        {
            "city_id": "228",
            "centerx": "102.638009",
            "district_online": "1",
            "centery": "37.928336",
            "name": "武威",
            "province": "甘肃",
            "zone_online": "0",
            "pinyin": "wuwei"
        },
        {
            "city_id": "1079",
            "centerx": "120.303027",
            "district_online": "1",
            "centery": "31.566145",
            "name": "无锡",
            "province": "江苏",
            "zone_online": "1",
            "pinyin": "wuxi"
        },
        {
            "city_id": "141",
            "centerx": "118.035304",
            "district_online": "0",
            "centery": "27.756658",
            "name": "武夷山",
            "province": "福建",
            "zone_online": "0",
            "pinyin": "wuyishan"
        },
        {
            "city_id": "1096",
            "centerx": "117.862",
            "district_online": "0",
            "centery": "29.247993",
            "name": "婺源",
            "province": "江西",
            "zone_online": "0",
            "pinyin": "wuyuan"
        },
        {
            "city_id": "574",
            "centerx": "109.516925",
            "district_online": "1",
            "centery": "18.775147",
            "name": "五指山",
            "province": "海南",
            "zone_online": "0",
            "pinyin": "wuzhishan"
        },
        {
            "city_id": "1393",
            "centerx": "106.198225",
            "district_online": "1",
            "centery": "37.997476",
            "name": "吴忠",
            "province": "宁夏",
            "zone_online": "1",
            "pinyin": "wuzhong"
        },
        {
            "city_id": "452",
            "centerx": "111.27917",
            "district_online": "1",
            "centery": "23.47691",
            "name": "梧州",
            "province": "广西",
            "zone_online": "1",
            "pinyin": "wuzhou"
        },
        {
            "city_id": "196",
            "centerx": "118.08954",
            "district_online": "1",
            "centery": "24.479656",
            "name": "厦门",
            "province": "福建",
            "zone_online": "1",
            "pinyin": "xiamen"
        },
        {
            "city_id": "1494",
            "centerx": "108.944269",
            "district_online": "1",
            "centery": "34.264987",
            "name": "西安",
            "province": "陕西",
            "zone_online": "1",
            "pinyin": "xian"
        },
        {
            "city_id": "2122",
            "centerx": "99.706015",
            "district_online": "1",
            "centery": "27.823081",
            "name": "香格里拉",
            "province": "云南",
            "zone_online": "1",
            "pinyin": "xianggelila"
        },
        {
            "city_id": "2362",
            "centerx": "112.944049",
            "district_online": "1",
            "centery": "27.829738",
            "name": "湘潭",
            "province": "湖南",
            "zone_online": "1",
            "pinyin": "xiangtan"
        },
        {
            "city_id": "2357",
            "centerx": "112.535028",
            "district_online": "0",
            "centery": "27.73412",
            "name": "湘乡",
            "province": "湖南",
            "zone_online": "0",
            "pinyin": "xiangxiang"
        },
        {
            "city_id": "954",
            "centerx": "112.122415",
            "district_online": "1",
            "centery": "32.008986",
            "name": "襄阳",
            "province": "湖北",
            "zone_online": "1",
            "pinyin": "xiangyang"
        },
        {
            "city_id": "1014",
            "centerx": "114.322492",
            "district_online": "1",
            "centery": "29.841443",
            "name": "咸宁",
            "province": "湖北",
            "zone_online": "0",
            "pinyin": "xianning"
        },
        {
            "city_id": "998",
            "centerx": "113.454593",
            "district_online": "0",
            "centery": "30.362641",
            "name": "仙桃",
            "province": "湖北",
            "zone_online": "0",
            "pinyin": "xiantao"
        },
        {
            "city_id": "1503",
            "centerx": "108.709003",
            "district_online": "1",
            "centery": "34.329563",
            "name": "咸阳",
            "province": "陕西",
            "zone_online": "1",
            "pinyin": "xianyang"
        },
        {
            "city_id": "980",
            "centerx": "113.916903",
            "district_online": "1",
            "centery": "30.924568",
            "name": "孝感",
            "province": "湖北",
            "zone_online": "0",
            "pinyin": "xiaogan"
        },
        {
            "city_id": "330109",
            "centerx": 120.270638,
            "district_online": "0",
            "centery": 30.190791,
            "name": "萧山",
            "province": "浙江",
            "zone_online": "0",
            "pinyin": "xiaoshan"
        },
        {
            "city_id": "1924",
            "centerx": "102.264443",
            "district_online": "0",
            "centery": "27.894496",
            "name": "西昌",
            "province": "四川",
            "zone_online": "0",
            "pinyin": "xichang"
        },
        {
            "city_id": "152500",
            "centerx": 116.054361,
            "district_online": "1",
            "centery": 43.939809,
            "name": "锡林郭勒盟",
            "province": "内蒙古",
            "zone_online": "1",
            "pinyin": "xilinguolemeng"
        },
        {
            "city_id": "1175",
            "centerx": "114.922963",
            "district_online": "0",
            "centery": "25.386278",
            "name": "信丰",
            "province": "江西",
            "zone_online": "0",
            "pinyin": "xinfeng"
        },
        {
            "city_id": "152200",
            "centerx": 122.044143,
            "district_online": "1",
            "centery": 46.089057,
            "name": "兴安盟",
            "province": "内蒙古",
            "zone_online": "1",
            "pinyin": "xinganmeng"
        },
        {
            "city_id": "1276",
            "centerx": "120.728427",
            "district_online": "0",
            "centery": "40.614729",
            "name": "兴城",
            "province": "辽宁",
            "zone_online": "0",
            "pinyin": "xingcheng"
        },
        {
            "city_id": "1050",
            "centerx": "119.852688",
            "district_online": "0",
            "centery": "32.910464",
            "name": "兴化",
            "province": "江苏",
            "zone_online": "0",
            "pinyin": "xinghua"
        },
        {
            "city_id": "1504",
            "centerx": "108.490502",
            "district_online": "0",
            "centery": "34.299525",
            "name": "兴平",
            "province": "陕西",
            "zone_online": "0",
            "pinyin": "xingping"
        },
        {
            "city_id": "717",
            "centerx": "114.504874",
            "district_online": "1",
            "centery": "37.070589",
            "name": "邢台",
            "province": "河北",
            "zone_online": "0",
            "pinyin": "xingtai"
        },
        {
            "city_id": "942",
            "centerx": "113.38325",
            "district_online": "0",
            "centery": "34.787534",
            "name": "荥阳",
            "province": "河南",
            "zone_online": "0",
            "pinyin": "xingyang"
        },
        {
            "city_id": "1420",
            "centerx": "101.778208",
            "district_online": "1",
            "centery": "36.617085",
            "name": "西宁",
            "province": "青海",
            "zone_online": "1",
            "pinyin": "xining"
        },
        {
            "city_id": "687",
            "centerx": "115.217962",
            "district_online": "0",
            "centery": "37.943268",
            "name": "辛集",
            "province": "河北",
            "zone_online": "0",
            "pinyin": "xinji"
        },
        {
            "city_id": "667",
            "centerx": "114.689958",
            "district_online": "0",
            "centery": "38.345241",
            "name": "新乐",
            "province": "河北",
            "zone_online": "0",
            "pinyin": "xinle"
        },
        {
            "city_id": "868",
            "centerx": "113.391095",
            "district_online": "0",
            "centery": "34.539564",
            "name": "新密",
            "province": "河南",
            "zone_online": "0",
            "pinyin": "xinmi"
        },
        {
            "city_id": "1240",
            "centerx": "122.827991",
            "district_online": "0",
            "centery": "41.997757",
            "name": "新民",
            "province": "辽宁",
            "zone_online": "0",
            "pinyin": "xinmin"
        },
        {
            "city_id": "1614",
            "centerx": "117.767953",
            "district_online": "0",
            "centery": "35.909032",
            "name": "新泰",
            "province": "山东",
            "zone_online": "0",
            "pinyin": "xintai"
        },
        {
            "city_id": "836",
            "centerx": "113.9268",
            "district_online": "1",
            "centery": "35.303004",
            "name": "新乡",
            "province": "河南",
            "zone_online": "0",
            "pinyin": "xinxiang"
        },
        {
            "city_id": "935",
            "centerx": "114.068871",
            "district_online": "1",
            "centery": "32.123233",
            "name": "信阳",
            "province": "河南",
            "zone_online": "0",
            "pinyin": "xinyang"
        },
        {
            "city_id": "1136",
            "centerx": "114.91741",
            "district_online": "1",
            "centery": "27.817819",
            "name": "新余",
            "province": "江西",
            "zone_online": "1",
            "pinyin": "xinyu"
        },
        {
            "city_id": "869",
            "centerx": "113.740533",
            "district_online": "0",
            "centery": "34.395707",
            "name": "新郑",
            "province": "河南",
            "zone_online": "0",
            "pinyin": "xinzheng"
        },
        {
            "city_id": "1696",
            "centerx": "112.734269",
            "district_online": "1",
            "centery": "38.416364",
            "name": "忻州",
            "province": "山西",
            "zone_online": "0",
            "pinyin": "xinzhou"
        },
        {
            "city_id": "51",
            "centerx": "118.758816",
            "district_online": "1",
            "centery": "30.940718",
            "name": "宣城",
            "province": "安徽",
            "zone_online": "1",
            "pinyin": "xuancheng"
        },
        {
            "city_id": "944",
            "centerx": "113.852461",
            "district_online": "1",
            "centery": "34.035825",
            "name": "许昌",
            "province": "河南",
            "zone_online": "1",
            "pinyin": "xuchang"
        },
        {
            "city_id": "1085",
            "centerx": "117.284067",
            "district_online": "1",
            "centery": "34.20475",
            "name": "徐州",
            "province": "江苏",
            "zone_online": "1",
            "pinyin": "xuzhou"
        },
        {
            "city_id": "1872",
            "centerx": "103.013163",
            "district_online": "1",
            "centery": "29.980514",
            "name": "雅安",
            "province": "四川",
            "zone_online": "0",
            "pinyin": "yaan"
        },
        {
            "city_id": "1463",
            "centerx": "109.489635",
            "district_online": "1",
            "centery": "36.585424",
            "name": "延安",
            "province": "陕西",
            "zone_online": "1",
            "pinyin": "yanan"
        },
        {
            "city_id": "1046",
            "centerx": "120.163561",
            "district_online": "1",
            "centery": "33.347378",
            "name": "盐城",
            "province": "江苏",
            "zone_online": "1",
            "pinyin": "yancheng"
        },
        {
            "city_id": "324",
            "centerx": "111.982207",
            "district_online": "1",
            "centery": "21.857938",
            "name": "阳江",
            "province": "广东",
            "zone_online": "1",
            "pinyin": "yangjiang"
        },
        {
            "city_id": "1708",
            "centerx": "113.580415",
            "district_online": "1",
            "centery": "37.856658",
            "name": "阳泉",
            "province": "山西",
            "zone_online": "1",
            "pinyin": "yangquan"
        },
        {
            "city_id": "623002",
            "centerx": "0.00000",
            "district_online": "0",
            "centery": "0.00000",
            "name": "阳朔",
            "province": "广西",
            "zone_online": "0",
            "pinyin": "yangshuo"
        },
        {
            "city_id": "1064",
            "centerx": "119.796465",
            "district_online": "0",
            "centery": "32.237046",
            "name": "扬中",
            "province": "江苏",
            "zone_online": "0",
            "pinyin": "yangzhong"
        },
        {
            "city_id": "1057",
            "centerx": "119.412855",
            "district_online": "1",
            "centery": "32.394238",
            "name": "扬州",
            "province": "江苏",
            "zone_online": "1",
            "pinyin": "yangzhou"
        },
        {
            "city_id": "1211",
            "centerx": "129.513914",
            "district_online": "1",
            "centery": "42.906959",
            "name": "延吉",
            "province": "吉林",
            "zone_online": "1",
            "pinyin": "yanji"
        },
        {
            "city_id": "1553",
            "centerx": "121.447926",
            "district_online": "1",
            "centery": "37.463819",
            "name": "烟台",
            "province": "山东",
            "zone_online": "1",
            "pinyin": "yantai"
        },
        {
            "city_id": "440308",
            "centerx": 114.243395,
            "district_online": "0",
            "centery": 22.563392,
            "name": "盐田",
            "province": "广东",
            "zone_online": "0",
            "pinyin": "yantian"
        },
        {
            "city_id": "1626",
            "centerx": "116.783834",
            "district_online": "0",
            "centery": "35.553144",
            "name": "兖州",
            "province": "山东",
            "zone_online": "0",
            "pinyin": "yanzhou"
        },
        {
            "city_id": "1907",
            "centerx": "104.643373",
            "district_online": "1",
            "centery": "28.751878",
            "name": "宜宾",
            "province": "四川",
            "zone_online": "1",
            "pinyin": "yibin"
        },
        {
            "city_id": "970",
            "centerx": "111.286471",
            "district_online": "1",
            "centery": "30.691967",
            "name": "宜昌",
            "province": "湖北",
            "zone_online": "1",
            "pinyin": "yichang"
        },
        {
            "city_id": "1137",
            "centerx": "114.395108",
            "district_online": "1",
            "centery": "27.796561",
            "name": "宜春",
            "province": "江西",
            "zone_online": "1",
            "pinyin": "yichun"
        },
        {
            "city_id": "748",
            "centerx": "128.840661",
            "district_online": "1",
            "centery": "47.727542",
            "name": "伊春",
            "province": "黑龙江",
            "zone_online": "0",
            "pinyin": "yichunhlj"
        },
        {
            "city_id": "863",
            "centerx": "111.874321",
            "district_online": "0",
            "centery": "34.747185",
            "name": "义马",
            "province": "河南",
            "zone_online": "0",
            "pinyin": "yima"
        },
        {
            "city_id": "1388",
            "centerx": "106.230909",
            "district_online": "1",
            "centery": "38.487194",
            "name": "银川",
            "province": "宁夏",
            "zone_online": "1",
            "pinyin": "yinchuan"
        },
        {
            "city_id": "1278",
            "centerx": "122.234996",
            "district_online": "1",
            "centery": "40.667061",
            "name": "营口",
            "province": "辽宁",
            "zone_online": "0",
            "pinyin": "yingkou"
        },
        {
            "city_id": "1131",
            "centerx": "117.069202",
            "district_online": "1",
            "centery": "28.260189",
            "name": "鹰潭",
            "province": "江西",
            "zone_online": "1",
            "pinyin": "yingtan"
        },
        {
            "city_id": "2278",
            "centerx": "120.075058",
            "district_online": "1",
            "centery": "29.306841",
            "name": "义乌",
            "province": "浙江",
            "zone_online": "0",
            "pinyin": "yiwu"
        },
        {
            "city_id": "1081",
            "centerx": "119.822282",
            "district_online": "0",
            "centery": "31.338638",
            "name": "宜兴",
            "province": "江苏",
            "zone_online": "0",
            "pinyin": "yixing"
        },
        {
            "city_id": "2340",
            "centerx": "112.355582",
            "district_online": "1",
            "centery": "28.553883",
            "name": "益阳",
            "province": "湖南",
            "zone_online": "1",
            "pinyin": "yiyang"
        },
        {
            "city_id": "1060",
            "centerx": "119.184926",
            "district_online": "0",
            "centery": "32.272077",
            "name": "仪征",
            "province": "江苏",
            "zone_online": "0",
            "pinyin": "yizheng"
        },
        {
            "city_id": "887",
            "centerx": "116.4495",
            "district_online": "0",
            "centery": "33.929291",
            "name": "永城",
            "province": "河南",
            "zone_online": "0",
            "pinyin": "yongcheng"
        },
        {
            "city_id": "2290",
            "centerx": "120.047394",
            "district_online": "1",
            "centery": "28.888782",
            "name": "永康",
            "province": "浙江",
            "zone_online": "0",
            "pinyin": "yongkang"
        },
        {
            "city_id": "431100",
            "centerx": 111.620253,
            "district_online": "0",
            "centery": 26.425878,
            "name": "永州",
            "province": "湖南",
            "zone_online": "0",
            "pinyin": "yongzhou"
        },
        {
            "city_id": "2325",
            "centerx": "113.128959",
            "district_online": "1",
            "centery": "29.357104",
            "name": "岳阳",
            "province": "湖南",
            "zone_online": "1",
            "pinyin": "yueyang"
        },
        {
            "city_id": "330110",
            "centerx": 120.306706,
            "district_online": "0",
            "centery": 30.423853,
            "name": "余杭",
            "province": "浙江",
            "zone_online": "0",
            "pinyin": "yuhang"
        },
        {
            "city_id": "465",
            "centerx": "110.164756",
            "district_online": "1",
            "centery": "22.636379",
            "name": "玉林",
            "province": "广西",
            "zone_online": "1",
            "pinyin": "yulingx"
        },
        {
            "city_id": "1448",
            "centerx": "109.735209",
            "district_online": "1",
            "centery": "38.285526",
            "name": "榆林",
            "province": "陕西",
            "zone_online": "1",
            "pinyin": "yulinsx"
        },
        {
            "city_id": "1770",
            "centerx": "111.007324",
            "district_online": "1",
            "centery": "35.026372",
            "name": "运城",
            "province": "山西",
            "zone_online": "1",
            "pinyin": "yuncheng"
        },
        {
            "city_id": "365",
            "centerx": "112.044491",
            "district_online": "1",
            "centery": "22.915094",
            "name": "云浮",
            "province": "广东",
            "zone_online": "1",
            "pinyin": "yunfu"
        },
        {
            "city_id": "1189",
            "centerx": "126.533363",
            "district_online": "0",
            "centery": "44.840085",
            "name": "榆树",
            "province": "吉林",
            "zone_online": "0",
            "pinyin": "yushu"
        },
        {
            "city_id": "2203",
            "centerx": "102.546543",
            "district_online": "1",
            "centery": "24.352036",
            "name": "玉溪",
            "province": "云南",
            "zone_online": "1",
            "pinyin": "yuxi"
        },
        {
            "city_id": "2262",
            "centerx": "121.154629",
            "district_online": "0",
            "centery": "30.037197",
            "name": "余姚",
            "province": "浙江",
            "zone_online": "0",
            "pinyin": "yuyao"
        },
        {
            "city_id": "880",
            "centerx": "113.472516",
            "district_online": "0",
            "centery": "34.1547",
            "name": "禹州",
            "province": "河南",
            "zone_online": "0",
            "pinyin": "yuzhou"
        },
        {
            "city_id": "1639",
            "centerx": "117.323725",
            "district_online": "1",
            "centery": "34.810488",
            "name": "枣庄",
            "province": "山东",
            "zone_online": "0",
            "pinyin": "zaozhuang"
        },
        {
            "city_id": "1074",
            "centerx": "120.555667",
            "district_online": "1",
            "centery": "31.875513",
            "name": "张家港",
            "province": "江苏",
            "zone_online": "1",
            "pinyin": "zhangjiagang"
        },
        {
            "city_id": "2329",
            "centerx": "110.479221",
            "district_online": "1",
            "centery": "29.116525",
            "name": "张家界",
            "province": "湖南",
            "zone_online": "1",
            "pinyin": "zhangjiajie"
        },
        {
            "city_id": "598",
            "centerx": "114.885951",
            "district_online": "1",
            "centery": "40.767576",
            "name": "张家口",
            "province": "河北",
            "zone_online": "0",
            "pinyin": "zhangjiakou"
        },
        {
            "city_id": "1584",
            "centerx": "117.534108",
            "district_online": "0",
            "centery": "36.714028",
            "name": "章丘",
            "province": "山东",
            "zone_online": "0",
            "pinyin": "zhangqiu"
        },
        {
            "city_id": "1133",
            "centerx": "115.546063",
            "district_online": "0",
            "centery": "28.055796",
            "name": "樟树",
            "province": "江西",
            "zone_online": "0",
            "pinyin": "zhangshu"
        },
        {
            "city_id": "222",
            "centerx": "100.449822",
            "district_online": "1",
            "centery": "38.925646",
            "name": "张掖",
            "province": "甘肃",
            "zone_online": "0",
            "pinyin": "zhangyi"
        },
        {
            "city_id": "200",
            "centerx": "117.647363",
            "district_online": "1",
            "centery": "24.513321",
            "name": "漳州",
            "province": "福建",
            "zone_online": "1",
            "pinyin": "zhangzhou"
        },
        {
            "city_id": "389",
            "centerx": "110.359255",
            "district_online": "1",
            "centery": "21.270764",
            "name": "湛江",
            "province": "广东",
            "zone_online": "1",
            "pinyin": "zhanjiang"
        },
        {
            "city_id": "361",
            "centerx": "112.465091",
            "district_online": "1",
            "centery": "23.047192",
            "name": "肇庆",
            "province": "广东",
            "zone_online": "1",
            "pinyin": "zhaoqing"
        },
        {
            "city_id": "2135",
            "centerx": "103.717465",
            "district_online": "1",
            "centery": "27.338257",
            "name": "昭通",
            "province": "云南",
            "zone_online": "1",
            "pinyin": "zhaotong"
        },
        {
            "city_id": "852",
            "centerx": "113.624899",
            "district_online": "1",
            "centery": "34.746985",
            "name": "郑州",
            "province": "河南",
            "zone_online": "1",
            "pinyin": "zhengzhou"
        },
        {
            "city_id": "1065",
            "centerx": "119.45722",
            "district_online": "1",
            "centery": "32.199147",
            "name": "镇江",
            "province": "江苏",
            "zone_online": "0",
            "pinyin": "zhenjiang"
        },
        {
            "city_id": "505",
            "centerx": "108.429644",
            "district_online": "0",
            "centery": "27.049112",
            "name": "镇远",
            "province": "贵州",
            "zone_online": "0",
            "pinyin": "zhenyuan"
        },
        {
            "city_id": "514100",
            "centerx": 104.685249,
            "district_online": "1",
            "centery": 31.038892,
            "name": "中江",
            "province": "四川",
            "zone_online": "1",
            "pinyin": "zhongjiang"
        },
        {
            "city_id": "375",
            "centerx": "113.392756",
            "district_online": "1",
            "centery": "22.516481",
            "name": "中山",
            "province": "广东",
            "zone_online": "1",
            "pinyin": "zhongshan"
        },
        {
            "city_id": "1395",
            "centerx": "105.173837",
            "district_online": "1",
            "centery": "37.516892",
            "name": "中卫",
            "province": "宁夏",
            "zone_online": "1",
            "pinyin": "zhongwei"
        },
        {
            "city_id": "908",
            "centerx": "114.657616",
            "district_online": "1",
            "centery": "33.618686",
            "name": "周口",
            "province": "河南",
            "zone_online": "1",
            "pinyin": "zhoukou"
        },
        {
            "city_id": "2265",
            "centerx": "122.206604",
            "district_online": "1",
            "centery": "29.985451",
            "name": "舟山",
            "province": "浙江",
            "zone_online": "1",
            "pinyin": "zhoushan"
        },
        {
            "city_id": "1284",
            "centerx": "122.967136",
            "district_online": "0",
            "centery": "39.68071",
            "name": "庄河",
            "province": "辽宁",
            "zone_online": "0",
            "pinyin": "zhuanghe"
        },
        {
            "city_id": "1608",
            "centerx": "119.409945",
            "district_online": "0",
            "centery": "35.995598",
            "name": "诸城",
            "province": "山东",
            "zone_online": "0",
            "pinyin": "zhucheng"
        },
        {
            "city_id": "392",
            "centerx": "113.576726",
            "district_online": "1",
            "centery": "22.270715",
            "name": "珠海",
            "province": "广东",
            "zone_online": "1",
            "pinyin": "zhuhai"
        },
        {
            "city_id": "2271",
            "centerx": "120.236431",
            "district_online": "0",
            "centery": "29.713738",
            "name": "诸暨",
            "province": "浙江",
            "zone_online": "0",
            "pinyin": "zhuji"
        },
        {
            "city_id": "925",
            "centerx": "114.026793",
            "district_online": "1",
            "centery": "32.975978",
            "name": "驻马店",
            "province": "河南",
            "zone_online": "0",
            "pinyin": "zhumadian"
        },
        {
            "city_id": "628",
            "centerx": "115.974464",
            "district_online": "1",
            "centery": "39.485281",
            "name": "涿州",
            "province": "河北",
            "zone_online": "1",
            "pinyin": "zhuozhou"
        },
        {
            "city_id": "2361",
            "centerx": "113.133775",
            "district_online": "1",
            "centery": "27.827827",
            "name": "株洲",
            "province": "湖南",
            "zone_online": "1",
            "pinyin": "zhuzhou"
        },
        {
            "city_id": "1588",
            "centerx": "118.055007",
            "district_online": "1",
            "centery": "36.813497",
            "name": "淄博",
            "province": "山东",
            "zone_online": "1",
            "pinyin": "zibo"
        },
        {
            "city_id": "1892",
            "centerx": "104.778442",
            "district_online": "1",
            "centery": "29.33903",
            "name": "自贡",
            "province": "四川",
            "zone_online": "1",
            "pinyin": "zigong"
        },
        {
            "city_id": "2014",
            "centerx": "82.781819",
            "district_online": "1",
            "centery": "41.221667",
            "name": "资阳",
            "province": "四川",
            "zone_online": "1",
            "pinyin": "ziyang"
        },
        {
            "city_id": "611",
            "centerx": "117.96591",
            "district_online": "0",
            "centery": "40.189192",
            "name": "遵化",
            "province": "河北",
            "zone_online": "0",
            "pinyin": "zunhua"
        },
        {
            "city_id": "560",
            "centerx": "106.927389",
            "district_online": "1",
            "centery": "27.725654",
            "name": "遵义",
            "province": "贵州",
            "zone_online": "1",
            "pinyin": "zunyi"
        }
    ]
}